,stars,name,latitude,longitude,city,region,country,cuisine,url,url_status
0,1,Kilian Stuba,47.34858,10.17114,Kleinwalsertal,Austria,Austria,Creative,https://guide.michelin.com/at/en/vorarlberg/kleinwalsertal/restaurant/kilian-stuba,200
1,1,Pfefferschiff,47.83787,13.07917,Hallwang,Austria,Austria,Classic cuisine,https://guide.michelin.com/at/en/salzburg-region/hallwang/restaurant/pfefferschiff,200
2,1,Esszimmer,47.80685,13.034089999999999,Salzburg,Austria,Austria,Creative,https://guide.michelin.com/at/en/salzburg-region/salzburg/restaurant/esszimmer,200
3,1,Carpe Diem,47.80001,13.04006,Salzburg,Austria,Austria,Market cuisine,https://guide.michelin.com/at/en/salzburg-region/salzburg/restaurant/carpe-diem,200
4,1,Edvard,48.216503,16.36852,Wien,Austria,Austria,Modern cuisine,https://guide.michelin.com/at/en/vienna/wien/restaurant/edvard,200
5,1,Das Loft,48.212720000000004,16.37931,Wien,Austria,Austria,Modern cuisine,https://guide.michelin.com/at/en/vienna/wien/restaurant/das-loft,200
6,1,Pramerl & the Wolf,48.20945,16.37174,Wien,Austria,Austria,Creative,https://guide.michelin.com/at/en/vienna/wien/restaurant/pramerl-the-wolf,200
7,1,Walter Bauer,48.20923,16.376720000000002,Wien,Austria,Austria,Classic cuisine,https://guide.michelin.com/at/en/vienna/wien/restaurant/walter-bauer,200
8,1,SHIKI,48.204066999999995,16.37098,Wien,Austria,Austria,Japanese,https://guide.michelin.com/at/en/vienna/wien/restaurant/shiki,200
9,1,Tian,48.20513,16.37456,Wien,Austria,Austria,Vegetarian,https://guide.michelin.com/at/en/vienna/wien/restaurant/tian,200
10,1,aend,48.18957,16.34115,Wien,Austria,Austria,Modern cuisine,https://guide.michelin.com/at/en/vienna/wien/restaurant/aend,200
11,1,Le Ciel by Toni Mörwald,48.202090000000005,16.371560000000002,Wien,Austria,Austria,Classic cuisine,https://guide.michelin.com/at/en/vienna/wien/restaurant/le-ciel-by-toni-morwald,200
12,1,Chez TJ,37.39468,-122.08044,South San Francisco,California,United States,Contemporary,https://guide.michelin.com/us/en/california/south-san-francisco/restaurant/chez-tj,200
13,1,Protégé,37.427853000000006,-122.14362,South San Francisco,California,United States,Contemporary,https://guide.michelin.com/us/en/california/south-san-francisco/restaurant/protege,200
14,1,Madera,37.42014,-122.21151,San Francisco,California,United States,Contemporary,https://guide.michelin.com/us/en/california/san-francisco/restaurant/madera,200
15,1,The Village Pub,37.42897,-122.25178000000001,San Francisco,California,United States,Contemporary,https://guide.michelin.com/us/en/california/san-francisco/restaurant/the-village-pub,200
16,1,Plumed Horse,37.256479999999996,-122.03537,South San Francisco,California,United States,Contemporary,https://guide.michelin.com/us/en/california/south-san-francisco/restaurant/plumed-horse,200
17,1,Wakuriya,37.52114,-122.3366,San Francisco,California,United States,Japanese,https://guide.michelin.com/us/en/california/san-francisco/restaurant/wakuriya,200
18,1,Sushi Yoshizumi,37.565075,-122.3211,San Francisco,California,United States,Japanese,https://guide.michelin.com/us/en/california/san-francisco/restaurant/sushi-yoshizumi,200
19,1,Rasa,37.577521999999995,-122.34598500000001,San Francisco,California,United States,Indian,https://guide.michelin.com/us/en/california/san-francisco/restaurant/rasa,200
20,1,Maum,37.726690000000005,-122.41421499999998,South San Francisco,California,United States,Korean,https://guide.michelin.com/us/en/california/south-san-francisco/restaurant/maum,200
21,1,Al's Place,37.748924,-122.42013,San Francisco,California,United States,Californian,https://guide.michelin.com/us/en/california/san-francisco/restaurant/al-s-place,200
22,1,Aster,37.755054,-122.423134,San Francisco,California,United States,Californian,https://guide.michelin.com/us/en/california/san-francisco/restaurant/aster,404
23,1,Omakase,37.77077,-122.40298,San Francisco,California,United States,Japanese,https://guide.michelin.com/us/en/california/san-francisco/restaurant/omakase,200
24,1,Commonwealth,37.761395,-122.41946000000002,San Francisco,California,United States,Contemporary,https://guide.michelin.com/us/en/california/san-francisco/restaurant/commonwealth,404
25,1,Luce,37.781940000000006,-122.40498000000001,San Francisco,California,United States,Contemporary,https://guide.michelin.com/us/en/california/san-francisco/restaurant/luce,200
26,1,Birdsong,37.779495000000004,-122.41048,San Francisco,California,United States,American,https://guide.michelin.com/us/en/california/san-francisco/restaurant/birdsong,200
27,1,In Situ,37.785633000000004,-122.40113000000001,San Francisco,California,United States,International,https://guide.michelin.com/us/en/california/san-francisco/restaurant/in-situ,200
28,1,Mourad,37.78695,-122.39986999999999,San Francisco,California,United States,Moroccan,https://guide.michelin.com/us/en/california/san-francisco/restaurant/mourad,200
29,1,Hashiri,37.783062,-122.40754,San Francisco,California,United States,Japanese,https://guide.michelin.com/us/en/california/san-francisco/restaurant/hashiri,200
30,1,Angler,37.793167,-122.39213000000001,San Francisco,California,United States,Contemporary,https://guide.michelin.com/us/en/california/san-francisco/restaurant/angler,200
31,1,Rich Table,37.774914,-122.42271000000001,San Francisco,California,United States,Contemporary,https://guide.michelin.com/us/en/california/san-francisco/restaurant/rich-table,200
32,1,Kin Khao,37.785267,-122.40951000000001,San Francisco,California,United States,Thai,https://guide.michelin.com/us/en/california/san-francisco/restaurant/kin-khao,200
33,1,Michael Mina,37.793490000000006,-122.399574,San Francisco,California,United States,Contemporary,https://guide.michelin.com/us/en/california/san-francisco/restaurant/michael-mina,200
34,1,Sons & Daughters,37.79037,-122.40916999999999,San Francisco,California,United States,Contemporary,https://guide.michelin.com/us/en/california/san-francisco/restaurant/sons-daughters,200
35,1,Mister Jiu's,37.79371,-122.406654,San Francisco,California,United States,Chinese,https://guide.michelin.com/us/en/california/san-francisco/restaurant/mister-jius,200
36,1,Nico,37.795803,-122.40333000000001,San Francisco,California,United States,Contemporary,https://guide.michelin.com/us/en/california/san-francisco/restaurant/nico,200
37,1,jū-ni,37.776720000000005,-122.43886,San Francisco,California,United States,Japanese,https://guide.michelin.com/us/en/california/san-francisco/restaurant/ju-ni,200
38,1,Keiko à Nob Hill,37.793106,-122.41445,San Francisco,California,United States,Fusion,https://guide.michelin.com/us/en/california/san-francisco/restaurant/keiko-a-nob-hill,200
39,1,The Progress,37.78371,-122.43281999999999,San Francisco,California,United States,Californian,https://guide.michelin.com/us/en/california/san-francisco/restaurant/the-progress,200
40,1,State Bird Provisions,37.783737,-122.43283000000001,San Francisco,California,United States,American,https://guide.michelin.com/us/en/california/san-francisco/restaurant/state-bird-provisions,200
41,1,Octavia,37.787857,-122.42708999999999,San Francisco,California,United States,Californian,https://guide.michelin.com/us/en/california/san-francisco/restaurant/octavia,200
42,1,SPQR,37.78732,-122.43375,San Francisco,California,United States,Italian,https://guide.michelin.com/us/en/california/san-francisco/restaurant/spqr,200
43,1,Lord Stanley,37.79592,-122.42208000000001,San Francisco,California,United States,Californian,https://guide.michelin.com/us/en/california/san-francisco/restaurant/lord-stanley,200
44,1,Kinjo,37.79699,-122.422005,San Francisco,California,United States,Japanese,https://guide.michelin.com/us/en/california/san-francisco/restaurant/kinjo,200
45,1,Sorrel,37.788334000000006,-122.44613999999999,San Francisco,California,United States,Californian,https://guide.michelin.com/us/en/california/san-francisco/restaurant/sorrel,200
46,1,Gary Danko,37.80599,-122.42066000000001,San Francisco,California,United States,Contemporary,https://guide.michelin.com/us/en/california/san-francisco/restaurant/gary-danko,200
47,1,Bar Crenn,37.798435,-122.43581,San Francisco,California,United States,French,https://guide.michelin.com/us/en/california/san-francisco/restaurant/bar-crenn,200
48,1,Spruce,37.78772,-122.45263999999999,San Francisco,California,United States,Californian,https://guide.michelin.com/us/en/california/san-francisco/restaurant/spruce,200
49,1,Wako,37.783035,-122.461525,San Francisco,California,United States,Japanese,https://guide.michelin.com/us/en/california/san-francisco/restaurant/wako,200
50,1,Madcap,37.974712,-122.56168000000001,San Francisco,California,United States,Contemporary,https://guide.michelin.com/us/en/california/san-francisco/restaurant/madcap,200
51,1,Aubergine,36.55406,-121.924355,Monterey,California,United States,Contemporary,https://guide.michelin.com/us/en/california/monterey/restaurant/aubergine,200
52,1,Kenzo,38.299240000000005,-122.28928,San Francisco,California,United States,Japanese,https://guide.michelin.com/us/en/california/san-francisco/restaurant/kenzo,200
53,1,La Toque,38.303509999999996,-122.28348999999999,San Francisco,California,United States,Contemporary,https://guide.michelin.com/us/en/california/san-francisco/restaurant/la-toque,200
54,1,Bouchon,38.40258,-122.3619,San Francisco,California,United States,French,https://guide.michelin.com/us/en/california/san-francisco/restaurant/bouchon,200
55,1,Auberge du Soleil,38.49199,-122.40534,San Francisco,California,United States,Californian,https://guide.michelin.com/us/en/california/san-francisco/restaurant/auberge-du-soleil,200
56,1,Farmhouse Inn & Restaurant,38.490390000000005,-122.8835,San Francisco,California,United States,Californian,https://guide.michelin.com/us/en/california/san-francisco/restaurant/farmhouse-inn-restaurant,200
57,1,The Kitchen,38.58894,-121.41423999999999,Sacramento,California,United States,Contemporary,https://guide.michelin.com/us/en/california/us-sacramento/restaurant/the-kitchen559371,200
58,1,Madrona Manor,38.604279999999996,-122.88646999999999,San Francisco,California,United States,Contemporary,https://guide.michelin.com/us/en/california/san-francisco/restaurant/madrona-manor,200
59,1,Harbor House,39.135876,-123.719444,San Francisco,California,United States,Californian,https://guide.michelin.com/us/en/california/san-francisco/restaurant/harbor-house,200
60,1,Shin Sushi,34.15784,-118.49415,Los Angeles,California,United States,Japanese,https://guide.michelin.com/us/en/california/us-los-angeles/restaurant/shin-sushi,200
61,1,Rustic Canyon,34.024952,-118.49118,Los Angeles,California,United States,Californian,https://guide.michelin.com/us/en/california/us-los-angeles/restaurant/rustic-canyon,200
62,1,Dialogue,34.01679,-118.49748000000001,Los Angeles,California,United States,Contemporary,https://guide.michelin.com/us/en/california/us-los-angeles/restaurant/dialogue,200
63,1,Kato,34.041683,-118.46091499999999,Los Angeles,California,United States,Asian,https://guide.michelin.com/us/en/california/us-los-angeles/restaurant/kato,200
64,1,CUT,34.067036,-118.40102399999999,Los Angeles,California,United States,Steakhouse,https://guide.michelin.com/us/en/california/us-los-angeles/restaurant/cut559418,200
65,1,Nozawa Bar,34.0683,-118.39849,Los Angeles,California,United States,Japanese,https://guide.michelin.com/us/en/california/us-los-angeles/restaurant/nozawa-bar,200
66,1,Shunji,34.028496000000004,-118.45195,Los Angeles,California,United States,Japanese,https://guide.michelin.com/us/en/california/us-los-angeles/restaurant/shunji,200
67,1,Maude,34.064346,-118.39903999999999,Los Angeles,California,United States,Contemporary,https://guide.michelin.com/us/en/california/us-los-angeles/restaurant/maude,200
68,1,Mori Sushi,34.033398,-118.44228999999999,Los Angeles,California,United States,Japanese,https://guide.michelin.com/us/en/california/us-los-angeles/restaurant/mori-sushi,200
69,1,Trois Mec,34.084255,-118.33851000000001,Los Angeles,California,United States,Contemporary,https://guide.michelin.com/us/en/california/us-los-angeles/restaurant/trois-mec,200
70,1,Osteria Mozza,34.083420000000004,-118.338974,Los Angeles,California,United States,Italian,https://guide.michelin.com/us/en/california/us-los-angeles/restaurant/osteria-mozza,200
71,1,Kali,34.083443,-118.32455,Los Angeles,California,United States,Californian,https://guide.michelin.com/us/en/california/us-los-angeles/restaurant/kali,200
72,1,Le Comptoir,34.06354,-118.30057,Los Angeles,California,United States,Californian,https://guide.michelin.com/us/en/california/us-los-angeles/restaurant/le-comptoir,200
73,1,Q Sushi,34.046883,-118.255844,Los Angeles,California,United States,Japanese,https://guide.michelin.com/us/en/california/us-los-angeles/restaurant/q-sushi,200
74,1,Shibumi,34.044154999999996,-118.256134,Los Angeles,California,United States,Japanese,https://guide.michelin.com/us/en/california/us-los-angeles/restaurant/shibumi559644,200
75,1,Hayato,34.03311,-118.24265,Los Angeles,California,United States,Japanese,https://guide.michelin.com/us/en/california/us-los-angeles/restaurant/hayato,200
76,1,Bistro Na's,34.104411999999996,-118.07158999999999,Los Angeles,California,United States,Chinese,https://guide.michelin.com/us/en/california/us-los-angeles/restaurant/bistro-na-s,200
77,1,Orsa & Winston,33.92145,-118.275406,Los Angeles,California,United States,Fusion,https://guide.michelin.com/us/en/california/us-los-angeles/restaurant/orsa-winston,200
78,1,Taco María,33.69475,-117.92496499999999,Costa Mesa,California,United States,Mexican,https://guide.michelin.com/us/en/california/us-costa-mesa/restaurant/taco-maria,200
79,1,Hana re,33.67759,-117.88656599999999,Costa Mesa,California,United States,Japanese,https://guide.michelin.com/us/en/california/us-costa-mesa/restaurant/hana-re,200
80,1,Addison,32.939903,-117.20013,San Diego,California,United States,Contemporary,https://guide.michelin.com/us/en/california/us-san-diego/restaurant/addison,200
81,1,Parachute,41.944829999999996,-87.70638000000001,Chicago,Chicago,United States,Fusion,https://guide.michelin.com/us/en/illinois/chicago/restaurant/parachute,200
82,1,Goosefoot,41.96856,-87.69596,Chicago,Chicago,United States,Contemporary,https://guide.michelin.com/us/en/illinois/chicago/restaurant/goosefoot,200
83,1,Elizabeth,41.969555,-87.68873599999999,Chicago,Chicago,United States,Contemporary,https://guide.michelin.com/us/en/illinois/chicago/restaurant/elizabeth,200
84,1,EL Ideas,41.863,-87.68686,Chicago,Chicago,United States,Contemporary,https://guide.michelin.com/us/en/illinois/chicago/restaurant/el-ideas,200
85,1,Band of Bohemia,41.967308,-87.67477,Chicago,Chicago,United States,Gastropub,https://guide.michelin.com/us/en/illinois/chicago/restaurant/band-of-bohemia,200
86,1,Schwa,41.908879999999996,-87.66792,Chicago,Chicago,United States,Contemporary,https://guide.michelin.com/us/en/illinois/chicago/restaurant/schwa,200
87,1,Temporis,41.898907,-87.66725,Chicago,Chicago,United States,Contemporary,https://guide.michelin.com/us/en/illinois/chicago/restaurant/temporis,200
88,1,Entente,41.93721,-87.6652,Chicago,Chicago,United States,Contemporary,https://guide.michelin.com/us/en/illinois/chicago/restaurant/entente,200
89,1,Elske,41.884426,-87.66071,Chicago,Chicago,United States,Contemporary,https://guide.michelin.com/us/en/illinois/chicago/restaurant/elske,200
90,1,Dusek's (Board & Beer),41.857853000000006,-87.65756999999999,Chicago,Chicago,United States,Gastropub,https://guide.michelin.com/us/en/illinois/chicago/restaurant/dusek-s-board-beer,200
91,1,Roister,41.886658000000004,-87.65187,Chicago,Chicago,United States,Contemporary,https://guide.michelin.com/us/en/illinois/chicago/restaurant/roister,200
92,1,Boka,41.91363,-87.64806,Chicago,Chicago,United States,Contemporary,https://guide.michelin.com/us/en/illinois/chicago/restaurant/boka,200
93,1,Blackbird,41.88423,-87.64356,Chicago,Chicago,United States,Contemporary,https://guide.michelin.com/us/en/illinois/chicago/restaurant/blackbird,200
94,1,Sepia,41.88394,-87.64246999999999,Chicago,Chicago,United States,American,https://guide.michelin.com/us/en/illinois/chicago/restaurant/sepia,200
95,1,North Pond,41.9296,-87.63762,Chicago,Chicago,United States,Contemporary,https://guide.michelin.com/us/en/illinois/chicago/restaurant/north-pond,200
96,1,Everest,41.87597,-87.63212,Chicago,Chicago,United States,French,https://guide.michelin.com/us/en/illinois/chicago/restaurant/everest,200
97,1,Topolobampo,41.89047,-87.63085,Chicago,Chicago,United States,Mexican,https://guide.michelin.com/us/en/illinois/chicago/restaurant/topolobampo,200
98,1,Spiaggia,41.90062,-87.62456999999999,Chicago,Chicago,United States,Italian,https://guide.michelin.com/us/en/illinois/chicago/restaurant/spiaggia,200
99,1,Monte,45.08279,13.631167999999999,Rovinj,Croatia,Croatia,Creative,https://guide.michelin.com/hr/en/istria/rovinj/restaurant/monte,200
100,1,Draga di Lovrana,45.275867,14.251401000000001,Lovran,Croatia,Croatia,Modern cuisine,https://guide.michelin.com/hr/en/primorje-gorski-kotar/lovran/restaurant/draga-di-lovrana,200
101,1,Noel,45.811054,15.988204999999999,Zagreb,Croatia,Croatia,Modern cuisine,https://guide.michelin.com/hr/en/zagreb-region/zagreb/restaurant/noel,200
102,1,Pelegrini,43.73603,15.888902999999999,Šibenik,Croatia,Croatia,Modern cuisine,https://guide.michelin.com/hr/en/sibenik-knin/sibenik/restaurant/pelegrini,200
103,1,360º,42.641563,18.111523000000002,Dubrovnik,Croatia,Croatia,Modern cuisine,https://guide.michelin.com/hr/en/dubrovnik-neretva/dubrovnik/restaurant/360%C2%BA,200
104,1,Field,50.0919,14.42193,Praha,Czech Republic,Czech Republic,Modern cuisine,https://guide.michelin.com/cz/en/prague/praha/restaurant/field,200
105,1,La Degustation Bohême Bourgeoise,50.09115,14.42511,Praha,Czech Republic,Czech Republic,Modern cuisine,https://guide.michelin.com/cz/en/prague/praha/restaurant/la-degustation-boheme-bourgeoise,200
106,1,Gastromé,56.157880000000006,10.20937,Aarhus,Denmark,Denmark,Modern cuisine,https://guide.michelin.com/dk/en/central-denmark/aarhus/restaurant/gastrome,200
107,1,Domestic,56.158930000000005,10.212132,Aarhus,Denmark,Denmark,Modern cuisine,https://guide.michelin.com/dk/en/central-denmark/aarhus/restaurant/domestic,200
108,1,Substans,56.15415,10.20372,Aarhus,Denmark,Denmark,Modern cuisine,https://guide.michelin.com/dk/en/central-denmark/aarhus/restaurant/substans,200
109,1,Frederikshøj,56.12497,10.208638,Aarhus,Denmark,Denmark,Creative,https://guide.michelin.com/dk/en/central-denmark/aarhus/restaurant/frederikshoj,200
110,1,Me‚Mu,55.70901,9.53302,Vejle,Denmark,Denmark,Modern cuisine,https://guide.michelin.com/dk/en/vejle/restaurant/me%E2%80%9Amu,404
111,1,Ti Trin Ned,55.566590000000005,9.752689,Fredericia,Denmark,Denmark,Modern cuisine,https://guide.michelin.com/dk/en/southern-denmark/fredericia/restaurant/ti-trin-ned,200
112,1,Slotskøkkenet,55.771236,11.390805,Hørve,Denmark,Denmark,Creative,https://guide.michelin.com/dk/en/zealand/horve/restaurant/slotskokkenet,200
113,1,Søllerød Kro,55.81325,12.49548,København,Denmark,Denmark,Modern cuisine,https://guide.michelin.com/dk/en/capital-region/kobenhavn/restaurant/sollerod-kro,200
114,1,Jordnær,55.748226,12.541014,København,Denmark,Denmark,Danish,https://guide.michelin.com/dk/en/capital-region/kobenhavn/restaurant/jordnaer,200
115,1,Relæ,55.693233,12.543222,København,Denmark,Denmark,Modern cuisine,https://guide.michelin.com/dk/en/capital-region/kobenhavn/restaurant/relae,200
116,1,Kiin Kiin,55.691880000000005,12.55754,København,Denmark,Denmark,Thai,https://guide.michelin.com/dk/en/capital-region/kobenhavn/restaurant/kiin-kiin,200
117,1,formel B,55.67031,12.537980000000001,København,Denmark,Denmark,Modern cuisine,https://guide.michelin.com/dk/en/capital-region/kobenhavn/restaurant/formel-b,200
118,1,Kokkeriet,55.68768000000001,12.58492,København,Denmark,Denmark,Modern cuisine,https://guide.michelin.com/dk/en/capital-region/kobenhavn/restaurant/kokkeriet,200
119,1,Clou,55.68342,12.58497,København,Denmark,Denmark,Modern cuisine,https://guide.michelin.com/dk/en/capital-region/kobenhavn/restaurant/clou,200
120,1,Marchal,55.68034,12.58508,København,Denmark,Denmark,Modern cuisine,https://guide.michelin.com/dk/en/capital-region/kobenhavn/restaurant/marchal,200
121,1,Kong Hans Kælder,55.6787,12.584003,København,Denmark,Denmark,Classic French,https://guide.michelin.com/dk/en/capital-region/kobenhavn/restaurant/kong-hans-kaelder,200
122,1,Stud!o at The Standard,55.67799,12.59191,København,Denmark,Denmark,Creative,https://guide.michelin.com/dk/en/capital-region/kobenhavn/restaurant/stud-o-at-the-standard,200
123,1,108,55.67785,12.598083500000001,København,Denmark,Denmark,Modern cuisine,https://guide.michelin.com/dk/en/capital-region/kobenhavn/restaurant/108,200
124,1,Era Ora,55.673004000000006,12.591292,København,Denmark,Denmark,Italian,https://guide.michelin.com/dk/en/capital-region/kobenhavn/restaurant/era-ora,200
125,1,Alouette,55.66265,12.57634,København,Denmark,Denmark,Modern cuisine,https://guide.michelin.com/dk/en/capital-region/kobenhavn/restaurant/alouette,200
126,1,Frederiksminde,55.12416999999999,12.04623,Præstø,Denmark,Denmark,Creative,https://guide.michelin.com/dk/en/zealand/praesto/restaurant/frederiksminde,200
127,1,Kadeau Bornholm,55.004569999999994,14.969216000000001,Pedersker,Denmark,Denmark,Creative,https://guide.michelin.com/dk/en/capital-region/pedersker/restaurant/kadeau-bornholm,200
128,1,Ask,60.17236,24.95648,Helsingfors / Helsinki,Finland,Finland,Modern cuisine,https://guide.michelin.com/fi/en/uusimaa/helsingfors-helsinki/restaurant/ask,200
129,1,Grön,60.16446,24.93308,Helsingfors / Helsinki,Finland,Finland,Finnish,https://guide.michelin.com/fi/en/uusimaa/helsingfors-helsinki/restaurant/gron,200
130,1,Demo,60.164806000000006,24.941635,Helsingfors / Helsinki,Finland,Finland,Modern cuisine,https://guide.michelin.com/fi/en/uusimaa/helsingfors-helsinki/restaurant/demo,200
131,1,Olo,60.16616,24.947704,Helsingfors / Helsinki,Finland,Finland,Modern cuisine,https://guide.michelin.com/fi/en/uusimaa/helsingfors-helsinki/restaurant/olo,200
132,1,Palace,60.16556,24.952560000000002,Helsingfors / Helsinki,Finland,Finland,Modern cuisine,https://guide.michelin.com/fi/en/uusimaa/helsingfors-helsinki/restaurant/palace,200
133,1,Ora,60.157578,24.942947,Helsingfors / Helsinki,Finland,Finland,Modern cuisine,https://guide.michelin.com/fi/en/uusimaa/helsingfors-helsinki/restaurant/ora,200
134,1,Botrini's,38.023179999999996,23.793770000000002,Athína,Greece,Greece,Mediterranean,https://guide.michelin.com/gr/en/attica/athina/restaurant/botrini-s,200
135,1,Varoulko Seaside,37.937378,23.658576999999998,Athína,Greece,Greece,Seafood,https://guide.michelin.com/gr/en/attica/athina/restaurant/varoulko-seaside,200
136,1,Hytra,37.95818,23.71895,Athína,Greece,Greece,Modern cuisine,https://guide.michelin.com/gr/en/attica/athina/restaurant/hytra,200
137,1,Loaf On,22.379858,114.27188000000001,Hong Kong,Hong Kong,China,Cantonese,https://guide.michelin.com/hk/en/hong-kong-region/hong-kong/restaurant/loaf-on,200
138,1,Lei Garden (Kwun Tong),22.312672,114.22482,Hong Kong,Hong Kong,China,Cantonese,https://guide.michelin.com/hk/en/hong-kong-region/hong-kong/restaurant/lei-garden-kwun-tong,200
139,1,Tim Ho Wan (Sham Shui Po),22.32805,114.16665,Hong Kong,Hong Kong,China,Dim Sum,https://guide.michelin.com/hk/en/hong-kong-region/hong-kong/restaurant/tim-ho-wan-sham-shui-po,200
140,1,Lei Garden (Mong Kok),22.320219,114.17133000000001,Hong Kong,Hong Kong,China,Cantonese,https://guide.michelin.com/hk/en/hong-kong-region/hong-kong/restaurant/lei-garden-mong-kok,200
141,1,Ming Court,22.318314,114.16933,Hong Kong,Hong Kong,China,Cantonese,https://guide.michelin.com/hk/en/hong-kong-region/hong-kong/restaurant/ming-court,200
142,1,Yat Tung Heen (Jordan),22.308014,114.17147,Hong Kong,Hong Kong,China,Cantonese,https://guide.michelin.com/hk/en/hong-kong-region/hong-kong/restaurant/yat-tung-heen-jordan,200
143,1,Fu Ho (Tsim Sha Tsui),22.3022,114.17193999999999,Hong Kong,Hong Kong,China,Cantonese,https://guide.michelin.com/hk/en/hong-kong-region/hong-kong/restaurant/fu-ho-tsim-sha-tsui,200
144,1,Shang Palace,22.297325,114.177155,Hong Kong,Hong Kong,China,Cantonese,https://guide.michelin.com/hk/en/hong-kong-region/hong-kong/restaurant/shang-palace,200
145,1,IM Teppanyaki & Wine,22.280807,114.19211000000001,Hong Kong,Hong Kong,China,Teppanyaki,https://guide.michelin.com/hk/en/hong-kong-region/hong-kong/restaurant/im-teppanyaki-wine,200
146,1,Ah Yat Harbour View (Tsim Sha Tsui),22.296984,114.17197,Hong Kong,Hong Kong,China,Cantonese,https://guide.michelin.com/hk/en/hong-kong-region/hong-kong/restaurant/ah-yat-harbour-view-tsim-sha-tsui,200
147,1,Rech,22.293434,114.174034,Hong Kong,Hong Kong,China,Seafood,https://guide.michelin.com/hk/en/hong-kong-region/hong-kong/restaurant/rech,200
148,1,Spring Moon,22.294943,114.17182,Hong Kong,Hong Kong,China,Cantonese,https://guide.michelin.com/hk/en/hong-kong-region/hong-kong/restaurant/spring-moon,200
149,1,Imperial Treasure Fine Chinese Cuisine,22.296177,114.170006,Hong Kong,Hong Kong,China,Cantonese,https://guide.michelin.com/hk/en/hong-kong-region/hong-kong/restaurant/imperial-treasure-fine-chinese-cuisine,200
150,1,Sushi Tokami,22.296112,114.16916,Hong Kong,Hong Kong,China,Sushi,https://guide.michelin.com/hk/en/hong-kong-region/hong-kong/restaurant/sushi-tokami,200
151,1,Tosca,22.30357,114.16006999999999,Hong Kong,Hong Kong,China,Italian,https://guide.michelin.com/hk/en/hong-kong-region/hong-kong/restaurant/tosca352519,200
152,1,Épure,22.29583,114.169304,Hong Kong,Hong Kong,China,French,https://guide.michelin.com/hk/en/hong-kong-region/hong-kong/restaurant/epure,200
153,1,Yee Tung Heen,22.282295,114.18413500000001,Hong Kong,Hong Kong,China,Cantonese,https://guide.michelin.com/hk/en/hong-kong-region/hong-kong/restaurant/yee-tung-heen,200
154,1,Yè Shanghai (Tsim Sha Tsui),22.295143,114.16823600000001,Hong Kong,Hong Kong,China,Shanghainese,https://guide.michelin.com/hk/en/hong-kong-region/hong-kong/restaurant/ye-shanghai-tsim-sha-tsui,200
155,1,Ho Hung Kee,22.280058,114.18364,Hong Kong,Hong Kong,China,Noodles and congee,https://guide.michelin.com/hk/en/hong-kong-region/hong-kong/restaurant/ho-hung-kee,200
156,1,Jardin de Jade (Wan Chai),22.28025,114.17716000000001,Hong Kong,Hong Kong,China,Shanghainese,https://guide.michelin.com/hk/en/hong-kong-region/hong-kong/restaurant/jardin-de-jade-wan-chai,200
157,1,Zhejiang Heen,22.2787,114.17763000000001,Hong Kong,Hong Kong,China,Shanghainese,https://guide.michelin.com/hk/en/hong-kong-region/hong-kong/restaurant/zhejiang-heen,200
158,1,Takumi by Daisuke Mori,22.276512,114.17718,Hong Kong,Hong Kong,China,Innovative,https://guide.michelin.com/hk/en/hong-kong-region/hong-kong/restaurant/takumi-by-daisuke-mori,200
159,1,Kam's Roast Goose,22.277693,114.175385,Hong Kong,Hong Kong,China,Cantonese Roast Meats,https://guide.michelin.com/hk/en/hong-kong-region/hong-kong/restaurant/kam-s-roast-goose,200
160,1,Pang's Kitchen,22.26921,114.18451999999999,Hong Kong,Hong Kong,China,Cantonese,https://guide.michelin.com/hk/en/hong-kong-region/hong-kong/restaurant/pang-s-kitchen,200
161,1,Xin Rong Ji,22.278013,114.17273,Hong Kong,Hong Kong,China,Taizhou,https://guide.michelin.com/hk/en/hong-kong-region/hong-kong/restaurant/xin-rong-ji,200
162,1,Qi (Wan Chai),22.276443,114.17126,Hong Kong,Hong Kong,China,Sichuan,https://guide.michelin.com/hk/en/hong-kong-region/hong-kong/restaurant/qi-wan-chai,200
163,1,Man Wah,22.282213,114.15951000000001,Hong Kong,Hong Kong,China,Cantonese,https://guide.michelin.com/hk/en/hong-kong-region/hong-kong/restaurant/man-wah,200
164,1,Summer Palace,22.277136,114.1643,Hong Kong,Hong Kong,China,Cantonese,https://guide.michelin.com/hk/en/hong-kong-region/hong-kong/restaurant/summer-palace,200
165,1,Octavium,22.282587,114.1572,Hong Kong,Hong Kong,China,Italian,https://guide.michelin.com/hk/en/hong-kong-region/hong-kong/restaurant/octavium,200
166,1,Arbor,22.283146,114.15541999999999,Hong Kong,Hong Kong,China,Innovative,https://guide.michelin.com/hk/en/hong-kong-region/hong-kong/restaurant/arbor,200
167,1,VEA,22.284931,114.15313,Hong Kong,Hong Kong,China,Innovative,https://guide.michelin.com/hk/en/hong-kong-region/hong-kong/restaurant/vea,200
168,1,Mandarin Grill + Bar,22.281048000000002,114.1574,Hong Kong,Hong Kong,China,European contemporary,https://guide.michelin.com/hk/en/hong-kong-region/hong-kong/restaurant/mandarin-grill-bar,200
169,1,Yat Lok,22.28226,114.15565500000001,Hong Kong,Hong Kong,China,Cantonese Roast Meats,https://guide.michelin.com/hk/en/hong-kong-region/hong-kong/restaurant/yat-lok,200
170,1,Guo Fu Lou,22.278313,114.16033999999999,Hong Kong,Hong Kong,China,Cantonese,https://guide.michelin.com/hk/en/hong-kong-region/hong-kong/restaurant/guo-fu-lou567828,200
171,1,Celebrity Cuisine,22.284334,114.15312,Hong Kong,Hong Kong,China,Cantonese,https://guide.michelin.com/hk/en/hong-kong-region/hong-kong/restaurant/celebrity-cuisine,200
172,1,Sushi Wadatsumi,22.281038,114.15646000000001,Hong Kong,Hong Kong,China,Sushi,https://guide.michelin.com/hk/en/hong-kong-region/hong-kong/restaurant/sushi-wadatsumi,200
173,1,Arcane,22.280624,114.15682,Hong Kong,Hong Kong,China,European contemporary,https://guide.michelin.com/hk/en/hong-kong-region/hong-kong/restaurant/arcane,200
174,1,Duddell's,22.280079999999998,114.15736399999999,Hong Kong,Hong Kong,China,Cantonese,https://guide.michelin.com/hk/en/hong-kong-region/hong-kong/restaurant/duddell-s,200
175,1,Beefbar,22.27982,114.15751999999999,Hong Kong,Hong Kong,China,Steakhouse,https://guide.michelin.com/hk/en/hong-kong-region/hong-kong/restaurant/beefbar,200
176,1,New Punjab Club,22.28005,114.15525,Hong Kong,Hong Kong,China,Indian,https://guide.michelin.com/hk/en/hong-kong-region/hong-kong/restaurant/new-punjab-club,200
177,1,Kaiseki Den by Saotome,22.285713,114.147865,Hong Kong,Hong Kong,China,Japanese,https://guide.michelin.com/hk/en/hong-kong-region/hong-kong/restaurant/kaiseki-den-by-saotome,200
178,1,Belon,22.281662,114.152405,Hong Kong,Hong Kong,China,French,https://guide.michelin.com/hk/en/hong-kong-region/hong-kong/restaurant/belon,200
179,1,Tate,22.280996,114.15276000000001,Hong Kong,Hong Kong,China,Innovative,https://guide.michelin.com/hk/en/hong-kong-region/hong-kong/restaurant/tate,200
180,1,The Ocean,22.235146,114.198524,Hong Kong,Hong Kong,China,French,https://guide.michelin.com/hk/en/hong-kong-region/hong-kong/restaurant/the-ocean,200
181,1,Costes Downtown,47.501129999999996,19.048595000000002,Budapest,Hungary,Hungary,Modern cuisine,https://guide.michelin.com/hu/en/central-hungary/budapest/restaurant/costes-downtown,200
182,1,Borkonyha Winekitchen,47.49953,19.052391,Budapest,Hungary,Hungary,Modern cuisine,https://guide.michelin.com/hu/en/central-hungary/budapest/restaurant/borkonyha-winekitchen,200
183,1,Stand,47.500244,19.059624,Budapest,Hungary,Hungary,Modern cuisine,https://guide.michelin.com/hu/en/central-hungary/budapest/restaurant/stand,200
184,1,Babel,47.492603,19.05256,Budapest,Hungary,Hungary,Modern cuisine,https://guide.michelin.com/hu/en/central-hungary/budapest/restaurant/babel,200
185,1,Costes,47.48873,19.061779,Budapest,Hungary,Hungary,Modern cuisine,https://guide.michelin.com/hu/en/central-hungary/budapest/restaurant/costes,200
186,1,The Kitchen,22.191442000000002,113.54299999999999,Macau,Macau,China,Steakhouse,https://guide.michelin.com/mo/en/macau-region/macau/restaurant/the-kitchen417810,200
187,1,Tim's Kitchen,22.189898,113.5439,Macau,Macau,China,Cantonese,https://guide.michelin.com/mo/en/macau-region/macau/restaurant/tim-s-kitchen,200
188,1,Wing Lei,22.188028,113.54578000000001,Macau,Macau,China,Cantonese,https://guide.michelin.com/mo/en/macau-region/macau/restaurant/wing-lei,200
189,1,King,22.190178,113.54028000000001,Macau,Macau,China,Cantonese,https://guide.michelin.com/mo/en/macau-region/macau/restaurant/king380226,200
190,1,Ying,22.161234,113.55540500000001,Macau,Macau,China,Cantonese,https://guide.michelin.com/mo/en/macau-region/macau/restaurant/ying,200
191,1,Shinji by Kanesaka,22.149635,113.56397,Macau,Macau,China,Sushi,https://guide.michelin.com/mo/en/macau-region/macau/restaurant/shinji-by-kanesaka,200
192,1,The Golden Peacock,22.148178,113.56335,Macau,Macau,China,Indian,https://guide.michelin.com/mo/en/macau-region/macau/restaurant/the-golden-peacock,200
193,1,Zi Yat Heen,22.145418,113.56152,Macau,Macau,China,Cantonese,https://guide.michelin.com/mo/en/macau-region/macau/restaurant/zi-yat-heen,200
194,1,8 1/2 Otto e Mezzo - Bombana,22.149179999999998,113.55393000000001,Macau,Macau,China,Italian,https://guide.michelin.com/mo/en/macau-region/macau/restaurant/8-1-2-otto-e-mezzo-bombana,200
195,1,Pearl Dragon,22.140524,113.56256,Macau,Macau,China,Cantonese,https://guide.michelin.com/mo/en/macau-region/macau/restaurant/pearl-dragon,200
196,1,Lai Heen,22.148754,113.551926,Macau,Macau,China,Cantonese,https://guide.michelin.com/mo/en/macau-region/macau/restaurant/lai-heen,200
197,1,FAGN,63.43391999999999,10.39628,Trondheim,Norway,Norway,Modern cuisine,https://guide.michelin.com/no/en/trondelag/trondheim/restaurant/fagn,200
198,1,Credo,63.43391,10.39631,Trondheim,Norway,Norway,Creative,https://guide.michelin.com/no/en/trondelag/trondheim/restaurant/credo,200
199,1,RE-NAA,58.972088,5.732876999999999,Stavanger,Norway,Norway,Creative,https://guide.michelin.com/no/en/rogaland/stavanger/restaurant/re-naa,200
200,1,Sabi Omakase,58.969936,5.7433133000000005,Stavanger,Norway,Norway,Sushi,https://guide.michelin.com/no/en/rogaland/stavanger/restaurant/sabi-omakase,200
201,1,Galt,59.91661,10.71369,Oslo,Norway,Norway,Modern cuisine,https://guide.michelin.com/no/en/oslo-region/oslo/restaurant/galt,200
202,1,Kontrast,59.92355,10.75106,Oslo,Norway,Norway,Scandinavian,https://guide.michelin.com/no/en/oslo-region/oslo/restaurant/kontrast,200
203,1,Statholdergaarden,59.909369999999996,10.74305,Oslo,Norway,Norway,Classic cuisine,https://guide.michelin.com/no/en/oslo-region/oslo/restaurant/statholdergaarden,200
204,1,Del Posto,40.74327,-74.0077,New York,New York City,United States,Italian,https://guide.michelin.com/us/en/new-york-state/new-york/restaurant/del-posto,200
205,1,Le Grill de Joël Robuchon,40.742897,-74.0077,New York,New York City,United States,French,https://guide.michelin.com/us/en/new-york-state/new-york/restaurant/le-grill-de-joel-robuchon,200
206,1,L'Appart,40.711903,-74.01544,New York,New York City,United States,French,https://guide.michelin.com/us/en/new-york-state/new-york/restaurant/l-appart,200
207,1,Okuda,40.743793,-74.00633,New York,New York City,United States,Japanese,https://guide.michelin.com/us/en/new-york-state/new-york/restaurant/okuda,200
208,1,Wallsé,40.73538,-74.00814,New York,New York City,United States,Austrian,https://guide.michelin.com/us/en/new-york-state/new-york/restaurant/wallse,200
209,1,Jeju Noodle Bar,40.732952000000004,-74.00744,New York,New York City,United States,Korean,https://guide.michelin.com/us/en/new-york-state/new-york/restaurant/jeju-noodle-bar,200
210,1,Sushi Nakazawa,40.731716,-74.00451,New York,New York City,United States,Japanese,https://guide.michelin.com/us/en/new-york-state/new-york/restaurant/sushi-nakazawa,200
211,1,Kosaka,40.738316,-74.00137,New York,New York City,United States,Japanese,https://guide.michelin.com/us/en/new-york-state/new-york/restaurant/kosaka,200
212,1,Bâtard,40.719615999999995,-74.00589000000001,New York,New York City,United States,Contemporary,https://guide.michelin.com/us/en/new-york-state/new-york/restaurant/batard,200
213,1,Hirohisa,40.72452,-74.003006,New York,New York City,United States,Japanese,https://guide.michelin.com/us/en/new-york-state/new-york/restaurant/hirohisa,200
214,1,Blue Hill,40.7321,-73.9996,New York,New York City,United States,American,https://guide.michelin.com/us/en/new-york-state/new-york/restaurant/blue-hill,200
215,1,ZZ's Clam Bar,40.727646,-74.00046,New York,New York City,United States,Seafood,https://guide.michelin.com/us/en/new-york-state/new-york/restaurant/zz-s-clam-bar,200
216,1,Babbo,40.73233,-73.99916,New York,New York City,United States,Italian,https://guide.michelin.com/us/en/new-york-state/new-york/restaurant/babbo,200
217,1,Carbone,40.727965999999995,-74.00017,New York,New York City,United States,Italian,https://guide.michelin.com/us/en/new-york-state/new-york/restaurant/carbone,200
218,1,Le Coucou,40.719162,-74.00001,New York,New York City,United States,French,https://guide.michelin.com/us/en/new-york-state/new-york/restaurant/le-coucou,200
219,1,Aldea,40.73885,-73.99365999999999,New York,New York City,United States,Mediterranean,https://guide.michelin.com/us/en/new-york-state/new-york/restaurant/aldea,200
220,1,Cote,40.73778,-73.99375,New York,New York City,United States,Korean,https://guide.michelin.com/us/en/new-york-state/new-york/restaurant/cote,200
221,1,Bouley at Home,40.74114,-73.99242,New York,New York City,United States,Contemporary,https://guide.michelin.com/us/en/new-york-state/new-york/restaurant/bouley-at-home,200
222,1,Gotham Bar and Grill,40.73417,-73.99379,New York,New York City,United States,American,https://guide.michelin.com/us/en/new-york-state/new-york/restaurant/gotham-bar-and-grill,200
223,1,Nix,40.733166,-73.993515,New York,New York City,United States,Vegetarian,https://guide.michelin.com/us/en/new-york-state/new-york/restaurant/nix,200
224,1,Junoon,40.74325,-73.99077,New York,New York City,United States,Indian,https://guide.michelin.com/us/en/new-york-state/new-york/restaurant/junoon,200
225,1,NoMad,40.74497,-73.98883000000001,New York,New York City,United States,Contemporary,https://guide.michelin.com/us/en/new-york-state/new-york/restaurant/nomad,200
226,1,The Musket Room,40.723915000000005,-73.99375,New York,New York City,United States,Contemporary,https://guide.michelin.com/us/en/new-york-state/new-york/restaurant/the-musket-room,200
227,1,Uncle Boons,40.721203,-73.99441,New York,New York City,United States,Thai,https://guide.michelin.com/us/en/new-york-state/new-york/restaurant/uncle-boons,200
228,1,Noda,40.74497,-73.988075,New York,New York City,United States,Japanese,https://guide.michelin.com/us/en/new-york-state/new-york/restaurant/noda,200
229,1,Gramercy Tavern,40.738490000000006,-73.98868,New York,New York City,United States,Contemporary,https://guide.michelin.com/us/en/new-york-state/new-york/restaurant/gramercy-tavern,200
230,1,The Clocktower,40.7414,-73.987595,New York,New York City,United States,Contemporary,https://guide.michelin.com/us/en/new-york-state/new-york/restaurant/the-clocktower,200
231,1,Ai Fiori,40.75013,-73.98357,New York,New York City,United States,Italian,https://guide.michelin.com/us/en/new-york-state/new-york/restaurant/ai-fiori,200
232,1,Casa Mono,40.73595,-73.98706,New York,New York City,United States,Spanish,https://guide.michelin.com/us/en/new-york-state/new-york/restaurant/casa-mono,200
233,1,Jewel Bako,40.727129999999995,-73.98928000000001,New York,New York City,United States,Japanese,https://guide.michelin.com/us/en/new-york-state/new-york/restaurant/jewel-bako,200
234,1,The River Café,40.703613,-73.99477399999999,New York,New York City,United States,Contemporary,https://guide.michelin.com/us/en/new-york-state/new-york/restaurant/the-river-cafe,200
235,1,Bar Uchū,40.72191,-73.99003,New York,New York City,United States,Japanese,https://guide.michelin.com/us/en/new-york-state/new-york/restaurant/bar-uchu,200
236,1,Café China,40.749973,-73.98228,New York,New York City,United States,Chinese,https://guide.michelin.com/us/en/new-york-state/new-york/restaurant/cafe-china,200
237,1,Kanoyama,40.730709999999995,-73.98655,New York,New York City,United States,Japanese,https://guide.michelin.com/us/en/new-york-state/new-york/restaurant/kanoyama,200
238,1,Contra,40.719916999999995,-73.98921999999999,New York,New York City,United States,Contemporary,https://guide.michelin.com/us/en/new-york-state/new-york/restaurant/contra,200
239,1,Atomix,40.744408,-73.98292,New York,New York City,United States,Korean,https://guide.michelin.com/us/en/new-york-state/new-york/restaurant/atomix,200
240,1,Kyo Ya,40.7266,-73.98526,New York,New York City,United States,Japanese,https://guide.michelin.com/us/en/new-york-state/new-york/restaurant/kyo-ya,200
241,1,Kajitsu,40.727759999999996,-73.98428,New York,New York City,United States,Japanese,https://guide.michelin.com/us/en/new-york-state/new-york/restaurant/kajitsu,200
242,1,Agern,40.752340000000004,-73.9775,New York,New York City,United States,Scandinavian,https://guide.michelin.com/us/en/new-york-state/new-york/restaurant/agern,200
243,1,Caviar Russe,40.760684999999995,-73.97355,New York,New York City,United States,Contemporary,https://guide.michelin.com/us/en/new-york-state/new-york/restaurant/caviar-russe,200
244,1,Tuome,40.724194,-73.9828,New York,New York City,United States,Fusion,https://guide.michelin.com/us/en/new-york-state/new-york/restaurant/tuome,200
245,1,Tempura Matsui,40.74839,-73.97474,New York,New York City,United States,Japanese,https://guide.michelin.com/us/en/new-york-state/new-york/restaurant/tempura-matsui,200
246,1,Sushi Yasuda,40.75108,-73.97364,New York,New York City,United States,Japanese,https://guide.michelin.com/us/en/new-york-state/new-york/restaurant/sushi-yasuda,200
247,1,Sushi Amane,40.751329999999996,-73.971725,New York,New York City,United States,Japanese,https://guide.michelin.com/us/en/new-york-state/new-york/restaurant/sushi-amane,200
248,1,Café Boulud,40.774390000000004,-73.96414,New York,New York City,United States,French,https://guide.michelin.com/us/en/new-york-state/new-york/restaurant/cafe-boulud,200
249,1,Claro,40.677395000000004,-73.98615,New York,New York City,United States,Mexican,https://guide.michelin.com/us/en/new-york-state/new-york/restaurant/claro,200
250,1,Satsuki,40.801243,-73.95187,New York,New York City,United States,Japanese,https://guide.michelin.com/us/en/new-york-state/new-york/restaurant/satsuki,200
251,1,Sushi Noz,40.77384,-73.958275,New York,New York City,United States,Japanese,https://guide.michelin.com/us/en/new-york-state/new-york/restaurant/sushi-noz,200
252,1,Sushi Inoue,40.810448,-73.943726,New York,New York City,United States,Japanese,https://guide.michelin.com/us/en/new-york-state/new-york/restaurant/sushi-inoue,200
253,1,Meadowsweet,40.710353999999995,-73.96316999999999,New York,New York City,United States,Mediterranean,https://guide.michelin.com/us/en/new-york-state/new-york/restaurant/meadowsweet,200
254,1,Casa Enríque,40.743491999999996,-73.95425,New York,New York City,United States,Mexican,https://guide.michelin.com/us/en/new-york-state/new-york/restaurant/casa-enrique,200
255,1,Peter Luger,40.70986,-73.96263,New York,New York City,United States,Steakhouse,https://guide.michelin.com/us/en/new-york-state/new-york/restaurant/peter-luger,200
256,1,Oxomoco,40.730057,-73.95538,New York,New York City,United States,Mexican,https://guide.michelin.com/us/en/new-york-state/new-york/restaurant/oxomoco,200
257,1,The Finch,40.68704,-73.96297,New York,New York City,United States,American,https://guide.michelin.com/us/en/new-york-state/new-york/restaurant/the-finch,200
258,1,Faro,40.707584000000004,-73.923035,New York,New York City,United States,American,https://guide.michelin.com/us/en/new-york-state/new-york/restaurant/faro,200
259,1,Senses,52.244583,21.005886,Warszawa,Poland,Poland,Modern cuisine,https://guide.michelin.com/pl/en/masovia/warszawa/restaurant/senses,200
260,1,atelier Amaro,52.217079999999996,21.037679999999998,Warszawa,Poland,Poland,Modern cuisine,https://guide.michelin.com/pl/en/masovia/warszawa/restaurant/atelier-amaro,200
261,1,Aniar,53.271119999999996,-9.057078,Gaillimh/Galway,Ireland,Ireland,Creative,https://guide.michelin.com/ie/en/galway/gaillimh-galway/restaurant/aniar,200
262,1,Loam,53.27384,-9.044447,Gaillimh/Galway,Ireland,Ireland,Creative,https://guide.michelin.com/ie/en/galway/gaillimh-galway/restaurant/loam,200
263,1,Wild Honey Inn,53.03151,-9.2911,Lios Dúin Bhearna/Lisdoonvarna,Ireland,Ireland,Classic cuisine,https://guide.michelin.com/ie/en/clare/lios-duin-bhearna-lisdoonvarna/restaurant/wild-honey-inn,200
264,1,Chestnut,51.562588,-9.460854,Ballydehob,Ireland,Ireland,Modern cuisine,https://guide.michelin.com/ie/en/cork/ballydehob/restaurant/chestnut,200
265,1,Mews,51.48285,-9.37234,Baltimore,Ireland,Ireland,Modern cuisine,https://guide.michelin.com/ie/en/cork/ie-baltimore/restaurant/mews,200
266,1,Ichigo Ichie,51.898167,-8.479933,Corcaigh/Cork,Ireland,Ireland,Japanese,https://guide.michelin.com/ie/en/cork/corcaigh-cork/restaurant/ichigo-ichie,200
267,1,Chapter One,53.354374,-6.263786,City Centre,Ireland,Ireland,Modern cuisine,https://guide.michelin.com/ie/en/dublin/city-centre/restaurant/chapter-one,200
268,1,Greenhouse,53.340042000000004,-6.258506,City Centre,Ireland,Ireland,Modern cuisine,https://guide.michelin.com/ie/en/dublin/city-centre/restaurant/greenhouse,200
269,1,L'Ecrivain,53.33626999999999,-6.24834,City Centre,Ireland,Ireland,Modern cuisine,https://guide.michelin.com/ie/en/dublin/city-centre/restaurant/l-ecrivain,200
270,1,Campagne,52.6559,-7.2464285,Cill Chainnigh/Kilkenny,Ireland,Ireland,Modern British,https://guide.michelin.com/ie/en/kilkenny/cill-chainnigh-kilkenny/restaurant/campagne,200
271,1,Heron & Grey,53.30143,-6.177574,Blackrock,Ireland,Ireland,Modern cuisine,https://guide.michelin.com/ie/en/dun-laoghaire-rathdown/blackrock/restaurant/heron-grey,404
272,1,Lady Helen,52.526095999999995,-7.188277,Baile Mhic Andáin/Thomastown,Ireland,Ireland,Modern cuisine,https://guide.michelin.com/ie/en/kilkenny/baile-mhic-andain-thomastown/restaurant/lady-helen,200
273,1,House,51.94777,-7.713539599999999,Aird Mhór/Ardmore,Ireland,Ireland,Modern cuisine,https://guide.michelin.com/ie/en/waterford/aird-mhor-ardmore/restaurant/house,200
274,1,Olympe,-22.96109,-43.206579999999995,Rio de Janeiro - 22470,Rio de Janeiro,Brasil,French,https://guide.michelin.com/br/en/rio-de-janeiro-region/rio-de-janeiro/restaurant/olympe,200
275,1,Lasai,-22.95401,-43.195570000000004,Rio de Janeiro - 22271,Rio de Janeiro,Brasil,modern,https://guide.michelin.com/br/en/rio-de-janeiro-region/rio-de-janeiro/restaurant/lasai,200
276,1,Oteque,-22.95747,-43.194424,Rio de Janeiro - 22271,Rio de Janeiro,Brasil,modern,https://guide.michelin.com/br/en/rio-de-janeiro-region/rio-de-janeiro/restaurant/oteque,200
277,1,Mee,-22.96764,-43.17925,Rio de Janeiro - 22021,Rio de Janeiro,Brasil,Asian influences,https://guide.michelin.com/br/en/rio-de-janeiro-region/rio-de-janeiro/restaurant/mee,200
278,1,Cipriani,-22.96755,-43.17901,Rio de Janeiro - 22021,Rio de Janeiro,Brasil,Italian,https://guide.michelin.com/br/en/rio-de-janeiro-region/rio-de-janeiro/restaurant/cipriani,200
279,1,Jun Sakamoto,-23.56318,-46.67737,São Paulo - 05413,Sao Paulo,Brasil,Japanese,https://guide.michelin.com/br/en/sao-paulo-region/sao-paulo/restaurant/jun-sakamoto,200
280,1,Maní,-23.56621,-46.67974,São Paulo - 05415,Sao Paulo,Brasil,creative,https://guide.michelin.com/br/en/sao-paulo-region/sao-paulo/restaurant/mani,200
281,1,Evvai,-23.567078,-46.679146,São Paulo - 05415,Sao Paulo,Brasil,modern,https://guide.michelin.com/br/en/sao-paulo-region/sao-paulo/restaurant/evvai,200
282,1,Picchi,-23.565063000000002,-46.666767,São Paulo - 01426,Sao Paulo,Brasil,Italian,https://guide.michelin.com/br/en/sao-paulo-region/sao-paulo/restaurant/picchi,200
283,1,Kosushi,-23.58522,-46.6809,São Paulo - 04538,Sao Paulo,Brasil,Japanese,https://guide.michelin.com/br/en/sao-paulo-region/sao-paulo/restaurant/kosushi,200
284,1,Ryo Gastronomia,-23.58132,-46.6767,São Paulo - 04531,Sao Paulo,Brasil,Japanese,https://guide.michelin.com/br/en/sao-paulo-region/sao-paulo/restaurant/ryo-gastronomia,200
285,1,Tangará Jean-Georges,-23.634005,-46.72428,São Paulo - 05706,Sao Paulo,Brasil,modern,https://guide.michelin.com/br/en/sao-paulo-region/sao-paulo/restaurant/tangara-jean-georges,200
286,1,Kinoshita,-23.59159,-46.671459999999996,São Paulo - 04509,Sao Paulo,Brasil,Japanese,https://guide.michelin.com/br/en/sao-paulo-region/sao-paulo/restaurant/kinoshita,200
287,1,Kan Suke,-23.5684,-46.649359999999994,São Paulo - 01401,Sao Paulo,Brasil,Japanese,https://guide.michelin.com/br/en/sao-paulo-region/sao-paulo/restaurant/kan-suke,200
288,1,Huto,-23.60882,-46.6598,São Paulo - 04080,Sao Paulo,Brasil,Japanese,https://guide.michelin.com/br/en/sao-paulo-region/sao-paulo/restaurant/huto,200
289,1,Stay,37.513003999999995,127.10257,Seoul,South Korea,South Korea,French contemporary,https://guide.michelin.com/kr/en/seoul-capital-area/kr-seoul/restaurant/stay,200
290,1,Lee Jong Kuk 104,37.592903,126.99728400000001,Seoul,South Korea,South Korea,Korean,https://guide.michelin.com/kr/en/seoul-capital-area/kr-seoul/restaurant/lee-jong-kuk-104,200
291,1,Hansikgonggan,37.577705,126.98852,Seoul,South Korea,South Korea,Korean,https://guide.michelin.com/kr/en/seoul-capital-area/kr-seoul/restaurant/hansikgonggan,200
292,1,Dining in Space,37.57761,126.98845,Seoul,South Korea,South Korea,French contemporary,https://guide.michelin.com/kr/en/seoul-capital-area/kr-seoul/restaurant/dining-in-space,200
293,1,Exquisine,37.521046000000005,127.04973600000001,Seoul,South Korea,South Korea,Innovative,https://guide.michelin.com/kr/en/seoul-capital-area/kr-seoul/restaurant/exquisine,200
294,1,Dosa,37.52445,127.04441000000001,Seoul,South Korea,South Korea,Innovative,https://guide.michelin.com/kr/en/seoul-capital-area/kr-seoul/restaurant/dosa511871,200
295,1,Joo Ok,37.52252,127.04396000000001,Seoul,South Korea,South Korea,Korean contemporary,https://guide.michelin.com/kr/en/seoul-capital-area/kr-seoul/restaurant/joo-ok,200
296,1,Balwoo Gongyang,37.573890000000006,126.98318,Seoul,South Korea,South Korea,Temple cuisine,https://guide.michelin.com/kr/en/seoul-capital-area/kr-seoul/restaurant/balwoo-gongyang,200
297,1,Muoki,37.518963,127.04217,Seoul,South Korea,South Korea,Innovative,https://guide.michelin.com/kr/en/seoul-capital-area/kr-seoul/restaurant/muoki,200
298,1,L'Amitié,37.522675,127.032646,Seoul,South Korea,South Korea,French,https://guide.michelin.com/kr/en/seoul-capital-area/kr-seoul/restaurant/l-amitie,200
299,1,Yu Yuan,37.57045,126.97533999999999,Seoul,South Korea,South Korea,Chinese,https://guide.michelin.com/kr/en/seoul-capital-area/kr-seoul/restaurant/yu-yuan,200
300,1,Bicena,37.5384,127.00135,Seoul,South Korea,South Korea,Korean,https://guide.michelin.com/kr/en/seoul-capital-area/kr-seoul/restaurant/bicena,200
301,1,Mosu,37.536415000000005,126.99933999999999,Seoul,South Korea,South Korea,Innovative,https://guide.michelin.com/kr/en/seoul-capital-area/kr-seoul/restaurant/mosu,200
302,1,Poom,37.54903,126.98341,Seoul,South Korea,South Korea,Korean,https://guide.michelin.com/kr/en/seoul-capital-area/kr-seoul/restaurant/poom,200
303,1,Soigné,37.49816,127.00200000000001,Seoul,South Korea,South Korea,Innovative,https://guide.michelin.com/kr/en/seoul-capital-area/kr-seoul/restaurant/soigne,200
304,1,Table for Four,37.497690000000006,126.99441999999999,Seoul,South Korea,South Korea,European contemporary,https://guide.michelin.com/kr/en/seoul-capital-area/kr-seoul/restaurant/table-for-four,200
305,1,Zero Complex,37.494170000000004,126.9948,Seoul,South Korea,South Korea,Innovative,https://guide.michelin.com/kr/en/seoul-capital-area/kr-seoul/restaurant/zero-complex,200
306,1,Jin Jin,37.55777,126.91323999999999,Seoul,South Korea,South Korea,Chinese,https://guide.michelin.com/kr/en/seoul-capital-area/kr-seoul/restaurant/jin-jin,200
307,1,Gotgan,37.52212,126.92022,Seoul,South Korea,South Korea,Korean,https://guide.michelin.com/kr/en/seoul-capital-area/kr-seoul/restaurant/gotgan,200
308,1,Hill Street Tai Hwa Pork Noodle,1.3052,103.8624,Singapore,Singapore,Singapore,Street Food,https://guide.michelin.com/sg/en/singapore-region/singapore/restaurant/hill-street-tai-hwa-pork-noodle,200
309,1,Putien (Kitchener Road),1.30969,103.8573,Singapore,Singapore,Singapore,Fujian,https://guide.michelin.com/sg/en/singapore-region/singapore/restaurant/putien-kitchener-road,200
310,1,Chef Kang's,1.304735,103.84955,Singapore,Singapore,Singapore,Cantonese,https://guide.michelin.com/sg/en/singapore-region/singapore/restaurant/chef-kang-s,200
311,1,Garibaldi,1.296564,103.855,Singapore,Singapore,Singapore,Italian,https://guide.michelin.com/sg/en/singapore-region/singapore/restaurant/garibaldi,200
312,1,Summer Pavilion,1.291284,103.8603,Singapore,Singapore,Singapore,Cantonese,https://guide.michelin.com/sg/en/singapore-region/singapore/restaurant/summer-pavilion,200
313,1,Shinji (Bras Basah Road),1.2959028000000001,103.8539,Singapore,Singapore,Singapore,Sushi,https://guide.michelin.com/sg/en/singapore-region/singapore/restaurant/shinji-bras-basah-road,200
314,1,The Song of India,1.310767,103.8353,Singapore,Singapore,Singapore,Indian,https://guide.michelin.com/sg/en/singapore-region/singapore/restaurant/the-song-of-india,200
315,1,Lei Garden,1.295228,103.8521,Singapore,Singapore,Singapore,Cantonese,https://guide.michelin.com/sg/en/singapore-region/singapore/restaurant/lei-garden501509,200
316,1,Whitegrass,1.295452,103.8516,Singapore,Singapore,Singapore,Australian,https://guide.michelin.com/sg/en/singapore-region/singapore/restaurant/whitegrass,200
317,1,Jaan,1.2931840000000001,103.8529,Singapore,Singapore,Singapore,French contemporary,https://guide.michelin.com/sg/en/singapore-region/singapore/restaurant/jaan,200
318,1,Labyrinth,1.2899688,103.8562,Singapore,Singapore,Singapore,Innovative,https://guide.michelin.com/sg/en/singapore-region/singapore/restaurant/labyrinth,200
319,1,Cut,1.2853268,103.8607,Singapore,Singapore,Singapore,Steakhouse,https://guide.michelin.com/sg/en/singapore-region/singapore/restaurant/cut,200
320,1,Alma,1.309123,103.834,Singapore,Singapore,Singapore,European contemporary,https://guide.michelin.com/sg/en/singapore-region/singapore/restaurant/alma,200
321,1,Béni,1.3023790000000002,103.8366,Singapore,Singapore,Singapore,French contemporary,https://guide.michelin.com/sg/en/singapore-region/singapore/restaurant/beni,200
322,1,Crystal Jade Golden Palace,1.303244,103.8353,Singapore,Singapore,Singapore,Chinese,https://guide.michelin.com/sg/en/singapore-region/singapore/restaurant/crystal-jade-golden-palace,200
323,1,Imperial Treasure Fine Teochew Cuisine (Orchard),1.3032448,103.8349,Singapore,Singapore,Singapore,Chinese,https://guide.michelin.com/sg/en/singapore-region/singapore/restaurant/imperial-treasure-fine-teochew-cuisine-orchard,200
324,1,Saint Pierre,1.2857809999999998,103.8538,Singapore,Singapore,Singapore,French contemporary,https://guide.michelin.com/sg/en/singapore-region/singapore/restaurant/saint-pierre,200
325,1,Sushi Ichi,1.305105,103.8324,Singapore,Singapore,Singapore,Sushi,https://guide.michelin.com/sg/en/singapore-region/singapore/restaurant/sushi-ichi,200
326,1,Sushi Kimura,1.3063718999999998,103.829475,Singapore,Singapore,Singapore,Sushi,https://guide.michelin.com/sg/en/singapore-region/singapore/restaurant/sushi-kimura,200
327,1,Iggy's,1.305986,103.8294,Singapore,Singapore,Singapore,European contemporary,https://guide.michelin.com/sg/en/singapore-region/singapore/restaurant/iggy-s,200
328,1,Braci,1.287212,103.84949,Singapore,Singapore,Singapore,Italian contemporary,https://guide.michelin.com/sg/en/singapore-region/singapore/restaurant/braci,200
329,1,Jiang-Nan Chun,1.304937,103.8288,Singapore,Singapore,Singapore,Cantonese,https://guide.michelin.com/sg/en/singapore-region/singapore/restaurant/jiang-nan-chun,200
330,1,Bacchanalia,1.2874758,103.8474,Singapore,Singapore,Singapore,Innovative,https://guide.michelin.com/sg/en/singapore-region/singapore/restaurant/bacchanalia,200
331,1,Shinji (Tanglin Road),1.305821,103.8257,Singapore,Singapore,Singapore,Sushi,https://guide.michelin.com/sg/en/singapore-region/singapore/restaurant/shinji-tanglin-road,200
332,1,Corner House,1.315121,103.8154,Singapore,Singapore,Singapore,Innovative,https://guide.michelin.com/sg/en/singapore-region/singapore/restaurant/corner-house,200
333,1,Summer Palace,1.3043848,103.825,Singapore,Singapore,Singapore,Cantonese,https://guide.michelin.com/sg/en/singapore-region/singapore/restaurant/summer-palace501658,200
334,1,Cheek by Jowl,1.281301,103.84849,Singapore,Singapore,Singapore,Australian,https://guide.michelin.com/sg/en/singapore-region/singapore/restaurant/cheek-by-jowl,200
335,1,Nouri,1.28086,103.84713,Singapore,Singapore,Singapore,Innovative,https://guide.michelin.com/sg/en/singapore-region/singapore/restaurant/nouri,200
336,1,Liao Fan Hong Kong Soya Sauce Chicken Rice & Noodle,1.2824799999999998,103.8439,Singapore,Singapore,Singapore,Street Food,https://guide.michelin.com/sg/en/singapore-region/singapore/restaurant/liao-fan-hong-kong-soya-sauce-chicken-rice-noodle,200
337,1,Burnt Ends,1.2805010000000001,103.8418,Singapore,Singapore,Singapore,Barbecue,https://guide.michelin.com/sg/en/singapore-region/singapore/restaurant/burnt-ends,200
338,1,Rhubarb,1.279368,103.84299999999999,Singapore,Singapore,Singapore,French contemporary,https://guide.michelin.com/sg/en/singapore-region/singapore/restaurant/rhubarb,200
339,1,Meta,1.279372,103.8415,Singapore,Singapore,Singapore,Innovative,https://guide.michelin.com/sg/en/singapore-region/singapore/restaurant/meta,200
340,1,Ma Cuisine,1.27826,103.84200000000001,Singapore,Singapore,Singapore,French,https://guide.michelin.com/sg/en/singapore-region/singapore/restaurant/ma-cuisine,200
341,1,Candlenut,1.2797709,103.8402,Singapore,Singapore,Singapore,Peranakan,https://guide.michelin.com/sg/en/singapore-region/singapore/restaurant/candlenut,200
342,1,Bhoga,57.70618,11.9624,Göteborg,Sweden,Sweden,Creative,https://guide.michelin.com/se/en/vastra-gotaland/goteborg/restaurant/bhoga,200
343,1,Koka,57.698406000000006,11.965365,Göteborg,Sweden,Sweden,Modern cuisine,https://guide.michelin.com/se/en/vastra-gotaland/goteborg/restaurant/koka,200
344,1,28+,57.69809,11.97377,Göteborg,Sweden,Sweden,Modern cuisine,https://guide.michelin.com/se/en/vastra-gotaland/goteborg/restaurant/28,200
345,1,SK Mat & Människor,57.69688000000001,11.98338,Göteborg,Sweden,Sweden,Modern cuisine,https://guide.michelin.com/se/en/vastra-gotaland/goteborg/restaurant/sk-mat-manniskor,200
346,1,Thörnströms Kök,57.69436999999999,11.977609,Göteborg,Sweden,Sweden,Classic cuisine,https://guide.michelin.com/se/en/vastra-gotaland/goteborg/restaurant/thornstroms-kok,200
347,1,Upper House,57.69745,11.990210000000001,Göteborg,Sweden,Sweden,Creative,https://guide.michelin.com/se/en/vastra-gotaland/goteborg/restaurant/upper-house,200
348,1,Agrikultur,59.34777,18.058629999999997,Stockholm,Sweden,Sweden,Modern cuisine,https://guide.michelin.com/se/en/stockholm-region/stockholm/restaurant/agrikultur,200
349,1,Sushi Sho,59.341286,18.049892,Stockholm,Sweden,Sweden,Japanese,https://guide.michelin.com/se/en/stockholm-region/stockholm/restaurant/sushi-sho,200
350,1,Volt,59.33866999999999,18.079683,Stockholm,Sweden,Sweden,Creative,https://guide.michelin.com/se/en/stockholm-region/stockholm/restaurant/volt,200
351,1,Ekstedt,59.33674,18.075210000000002,Stockholm,Sweden,Sweden,Meats and grills,https://guide.michelin.com/se/en/stockholm-region/stockholm/restaurant/ekstedt,200
352,1,Operakällaren,59.329876,18.071363,Stockholm,Sweden,Sweden,Classic cuisine,https://guide.michelin.com/se/en/stockholm-region/stockholm/restaurant/operakallaren,200
353,1,Mathias Dahlgren-Matbaren,59.32935,18.075429999999997,Stockholm,Sweden,Sweden,Modern cuisine,https://guide.michelin.com/se/en/stockholm-region/stockholm/restaurant/mathias-dahlgren-matbaren,200
354,1,Aloë,59.2842,17.985748,Stockholm,Sweden,Sweden,Creative,https://guide.michelin.com/se/en/stockholm-region/stockholm/restaurant/aloe,200
355,1,PM & Vänner,56.878919999999994,14.803870000000002,Växjö,Sweden,Sweden,Creative,https://guide.michelin.com/se/en/kronoberg/vaxjo/restaurant/pm-vanner,200
356,1,Bloom in the Park,55.59064,12.99794,Malmö,Sweden,Sweden,Creative,https://guide.michelin.com/se/en/skane/malmo/restaurant/bloom-in-the-park,200
357,1,SAV,55.53376,13.00537,Malmö,Sweden,Sweden,Creative,https://guide.michelin.com/se/en/skane/malmo/restaurant/sav,200
358,1,Golden Formosa,25.118216,121.53623,Taipei,Taipei,Taiwan,Taiwanese,https://guide.michelin.com/tw/en/taipei-region/taipei/restaurant/golden-formosa,200
359,1,Danny's Steakhouse,25.082657,121.552765,Taipei,Taipei,Taiwan,Steakhouse,https://guide.michelin.com/tw/en/taipei-region/taipei/restaurant/danny-s-steakhouse,200
360,1,L'Atelier de Joël Robuchon,25.039188,121.56771,Taipei,Taipei,Taiwan,French contemporary,https://guide.michelin.com/tw/en/taipei-region/taipei/restaurant/l-atelier-de-joel-robuchon550759,200
361,1,Kitcho,25.04429,121.55076000000001,Taipei,Taipei,Taiwan,Sushi,https://guide.michelin.com/tw/en/taipei-region/taipei/restaurant/kitcho,200
362,1,Tien Hsiang Lo,25.062696,121.529976,Taipei,Taipei,Taiwan,Hang Zhou,https://guide.michelin.com/tw/en/taipei-region/taipei/restaurant/tien-hsiang-lo,200
363,1,Ya Ge,25.06625,121.52533000000001,Taipei,Taipei,Taiwan,Cantonese,https://guide.michelin.com/tw/en/taipei-region/taipei/restaurant/ya-ge,200
364,1,Da-Wan,25.043018,121.55018999999999,Taipei,Taipei,Taiwan,Barbecue,https://guide.michelin.com/tw/en/taipei-region/taipei/restaurant/da-wan,200
365,1,Sushi Nomura,25.036179999999998,121.55465,Taipei,Taipei,Taiwan,Sushi,https://guide.michelin.com/tw/en/taipei-region/taipei/restaurant/sushi-nomura,200
366,1,logy,25.035610000000002,121.55323,Taipei,Taipei,Taiwan,Asian contemporary,https://guide.michelin.com/tw/en/taipei-region/taipei/restaurant/logy,200
367,1,Ming Fu,25.06171,121.52399,Taipei,Taipei,Taiwan,Taiwanese,https://guide.michelin.com/tw/en/taipei-region/taipei/restaurant/ming-fu,200
368,1,Ken An Ho,25.034622,121.55281000000001,Taipei,Taipei,Taiwan,Japanese,https://guide.michelin.com/tw/en/taipei-region/taipei/restaurant/ken-an-ho,200
369,1,Sushi Ryu,25.055832000000002,121.52723999999999,Taipei,Taipei,Taiwan,Sushi,https://guide.michelin.com/tw/en/taipei-region/taipei/restaurant/sushi-ryu,200
370,1,MUME,25.036266,121.54808999999999,Taipei,Taipei,Taiwan,European contemporary,https://guide.michelin.com/tw/en/taipei-region/taipei/restaurant/mume,200
371,1,Impromptu by Paul Lee,25.054289999999998,121.524254,Taipei,Taipei,Taiwan,Innovative,https://guide.michelin.com/tw/en/taipei-region/taipei/restaurant/impromptu-by-paul-lee,200
372,1,Longtail,25.023922,121.54841,Taipei,Taipei,Taiwan,Innovative,https://guide.michelin.com/tw/en/taipei-region/taipei/restaurant/longtail,200
373,1,Mountain and Sea House,25.038045999999998,121.53139499999999,Taipei,Taipei,Taiwan,Taiwanese,https://guide.michelin.com/tw/en/taipei-region/taipei/restaurant/mountain-and-sea-house,200
374,1,Da San Yuan,25.042248,121.512215,Taipei,Taipei,Taiwan,Cantonese,https://guide.michelin.com/tw/en/taipei-region/taipei/restaurant/da-san-yuan,200
375,1,Tainan Tan Tsu Mien Seafood,25.03799,121.4984,Taipei,Taipei,Taiwan,Seafood,https://guide.michelin.com/tw/en/taipei-region/taipei/restaurant/tainan-tan-tsu-mien-seafood,200
376,1,Suan Thip,13.926962,100.502144,Bangkok,Thailand,Thailand,Thai,https://guide.michelin.com/th/en/bangkok-region/bangkok/restaurant/suan-thip,200
377,1,Upstairs at Mikkeller,13.727946,100.58844,Bangkok,Thailand,Thailand,Innovative,https://guide.michelin.com/th/en/bangkok-region/bangkok/restaurant/upstairs-at-mikkeller,200
378,1,Chim by Siam Wisdom,13.740706,100.56789,Bangkok,Thailand,Thailand,Thai,https://guide.michelin.com/th/en/bangkok-region/bangkok/restaurant/chim-by-siam-wisdom,200
379,1,R-Haan,13.731805,100.57972,Bangkok,Thailand,Thailand,Thai,https://guide.michelin.com/th/en/bangkok-region/bangkok/restaurant/r-haan,200
380,1,Canvas,13.728886,100.580826,Bangkok,Thailand,Thailand,Innovative,https://guide.michelin.com/th/en/bangkok-region/bangkok/restaurant/canvas566292,200
381,1,Bo.lan,13.726389000000001,100.57799,Bangkok,Thailand,Thailand,Thai,https://guide.michelin.com/th/en/bangkok-region/bangkok/restaurant/bo-lan,200
382,1,Sra Bua by Kiin Kiin,13.754137,100.53451,Bangkok,Thailand,Thailand,Thai Contemporary,https://guide.michelin.com/th/en/bangkok-region/bangkok/restaurant/sra-bua-by-kiin-kiin,200
383,1,Elements,13.742977999999999,100.54798000000001,Bangkok,Thailand,Thailand,French contemporary,https://guide.michelin.com/th/en/bangkok-region/bangkok/restaurant/elements,200
384,1,Paste,13.744594000000001,100.540565,Bangkok,Thailand,Thailand,Thai,https://guide.michelin.com/th/en/bangkok-region/bangkok/restaurant/paste,200
385,1,Ginza Sushi ichi,13.744069,100.54092,Bangkok,Thailand,Thailand,Sushi,https://guide.michelin.com/th/en/bangkok-region/bangkok/restaurant/ginza-sushi-ichi,200
386,1,Sorn,13.723242,100.56848000000001,Bangkok,Thailand,Thailand,Southern Thai,https://guide.michelin.com/th/en/bangkok-region/bangkok/restaurant/sorn,200
387,1,Savelberg,13.738216,100.54642,Bangkok,Thailand,Thailand,French contemporary,https://guide.michelin.com/th/en/bangkok-region/bangkok/restaurant/savelberg,200
388,1,Saneh Jaan,13.735739,100.54605,Bangkok,Thailand,Thailand,Thai,https://guide.michelin.com/th/en/bangkok-region/bangkok/restaurant/saneh-jaan,200
389,1,Gaa,13.737805999999999,100.54275,Bangkok,Thailand,Thailand,Innovative,https://guide.michelin.com/th/en/bangkok-region/bangkok/restaurant/gaa,200
390,1,Methavalai Sorndaeng,13.756321,100.502045,Bangkok,Thailand,Thailand,Thai,https://guide.michelin.com/th/en/bangkok-region/bangkok/restaurant/methavalai-sorndaeng,200
391,1,Jay Fai,13.752614000000001,100.50466,Bangkok,Thailand,Thailand,Street Food,https://guide.michelin.com/th/en/bangkok-region/bangkok/restaurant/jay-fai,200
392,1,Nahm,13.724357000000001,100.53926,Bangkok,Thailand,Thailand,Thai,https://guide.michelin.com/th/en/bangkok-region/bangkok/restaurant/nahm,200
393,1,J'AIME by Jean-Michel Lorain,13.718885,100.54632600000001,Bangkok,Thailand,Thailand,French contemporary,https://guide.michelin.com/th/en/bangkok-region/bangkok/restaurant/j-aime-by-jean-michel-lorain,200
394,1,Saawaan,13.721809,100.53741,Bangkok,Thailand,Thailand,Thai Contemporary,https://guide.michelin.com/th/en/bangkok-region/bangkok/restaurant/saawaan,200
395,1,Le Du,13.725005,100.52939,Bangkok,Thailand,Thailand,Thai,https://guide.michelin.com/th/en/bangkok-region/bangkok/restaurant/le-du,200
396,1,Ruean Panya,13.558403,100.28264,Bangkok,Thailand,Thailand,Thai,https://guide.michelin.com/th/en/bangkok-region/bangkok/restaurant/ruean-panya,200
397,1,PRU,8.034298,98.2764,Phuket,Thailand,Thailand,Innovative,https://guide.michelin.com/th/en/phuket-region/phuket/restaurant/pru,200
398,1,Blue Duck Tavern,38.905373,-77.05128,"Washington, D.C.",Washington DC,United States,American,https://guide.michelin.com/us/en/washington/washington-dc/restaurant/blue-duck-tavern,200
399,1,Tail Up Goat,38.9235,-77.043274,"Washington, D.C.",Washington DC,United States,Contemporary,https://guide.michelin.com/us/en/washington/washington-dc/restaurant/tail-up-goat,200
400,1,Komi,38.910107,-77.03836,"Washington, D.C.",Washington DC,United States,Mediterranean,https://guide.michelin.com/us/en/washington/washington-dc/restaurant/komi,200
401,1,Sushi Taro,38.909991999999995,-77.03834,"Washington, D.C.",Washington DC,United States,Japanese,https://guide.michelin.com/us/en/washington/washington-dc/restaurant/sushi-taro,200
402,1,Plume,38.906,-77.03671,"Washington, D.C.",Washington DC,United States,European,https://guide.michelin.com/us/en/washington/washington-dc/restaurant/plume,200
403,1,Siren by RW,38.907776,-77.035446,"Washington, D.C.",Washington DC,United States,Seafood,https://guide.michelin.com/us/en/washington/washington-dc/restaurant/siren-by-rw,200
404,1,Bresca,38.91584,-77.0321,"Washington, D.C.",Washington DC,United States,Contemporary,https://guide.michelin.com/us/en/washington/washington-dc/restaurant/bresca,200
405,1,The Dabney,38.906292,-77.024666,"Washington, D.C.",Washington DC,United States,American,https://guide.michelin.com/us/en/washington/washington-dc/restaurant/the-dabney,200
406,1,Métier,38.903503,-77.0218,"Washington, D.C.",Washington DC,United States,Contemporary,https://guide.michelin.com/us/en/washington/washington-dc/restaurant/metier,200
407,1,Kinship,38.903282,-77.0218,"Washington, D.C.",Washington DC,United States,Contemporary,https://guide.michelin.com/us/en/washington/washington-dc/restaurant/kinship,200
408,1,Fiola,38.89416,-77.02032,"Washington, D.C.",Washington DC,United States,Italian,https://guide.michelin.com/us/en/washington/washington-dc/restaurant/fiola,200
409,1,Masseria,38.909504,-76.99908,"Washington, D.C.",Washington DC,United States,Italian,https://guide.michelin.com/us/en/washington/washington-dc/restaurant/masseria,200
410,1,Rose's Luxury,38.88064,-76.99515,"Washington, D.C.",Washington DC,United States,Contemporary,https://guide.michelin.com/us/en/washington/washington-dc/restaurant/rose-s-luxury,200
411,1,Loch Bay,57.514869999999995,-6.57114,Waternish,United Kingdom,United Kingdom,Modern cuisine,https://guide.michelin.com/gb/en/highland/waternish/restaurant/loch-bay,200
412,1,Braidwoods,55.69474,-4.7425,Dalry,United Kingdom,United Kingdom,Classic cuisine,https://guide.michelin.com/gb/en/north-ayrshire/dalry/restaurant/braidwoods,200
413,1,Eipic,54.595898,-5.932242400000001,Belfast,United Kingdom,United Kingdom,Modern cuisine,https://guide.michelin.com/gb/en/belfast/belfast/restaurant/eipic,200
414,1,OX,54.59891,-5.9219800000000005,Belfast,United Kingdom,United Kingdom,Modern British,https://guide.michelin.com/gb/en/belfast/belfast/restaurant/ox399109,200
415,1,The Peat Inn,56.27861,-2.8845797,Peat Inn,United Kingdom,United Kingdom,Classic cuisine,https://guide.michelin.com/gb/en/fife/peat-inn/restaurant/the-peat-inn,200
416,1,Kitchin,55.976967,-3.1728419999999997,Leith,United Kingdom,United Kingdom,Modern cuisine,https://guide.michelin.com/gb/en/city-of-edinburgh/leith/restaurant/kitchin,200
417,1,Martin Wishart,55.975519999999996,-3.1701900000000003,Leith,United Kingdom,United Kingdom,Modern cuisine,https://guide.michelin.com/gb/en/city-of-edinburgh/leith/restaurant/martin-wishart,200
418,1,Number One,55.952980000000004,-3.18966,Edinburgh,United Kingdom,United Kingdom,Modern cuisine,https://guide.michelin.com/gb/en/city-of-edinburgh/edinburgh/restaurant/number-one,200
419,1,21212,55.95674,-3.18018,Edinburgh,United Kingdom,United Kingdom,Creative,https://guide.michelin.com/gb/en/city-of-edinburgh/edinburgh/restaurant/21212,200
420,1,The Cellar,56.222126,-2.6963209999999997,Anstruther,United Kingdom,United Kingdom,Modern cuisine,https://guide.michelin.com/gb/en/fife/anstruther/restaurant/the-cellar,200
421,1,Forest Side,54.46396,-3.0157998,Grasmere,United Kingdom,United Kingdom,Modern British,https://guide.michelin.com/gb/en/cumbria/grasmere/restaurant/forest-side,200
422,1,HRiSHi,54.35013000000001,-2.91172,Bowness-on-Windermere,United Kingdom,United Kingdom,Modern cuisine,https://guide.michelin.com/gb/en/cumbria/bowness-on-windermere/restaurant/hrishi,200
423,1,Rogan & Co,54.20074,-2.95464,Cartmel,United Kingdom,United Kingdom,Creative British,https://guide.michelin.com/gb/en/cumbria/cartmel/restaurant/rogan-co,200
424,1,House of Tides,54.967580000000005,-1.61127,Newcastle upon Tyne,United Kingdom,United Kingdom,Modern cuisine,https://guide.michelin.com/gb/en/tyne-and-wear/newcastle-upon-tyne/restaurant/house-of-tides,200
425,1,Sosban & The Old Butchers,53.225925,-4.163006,Menai Bridge/Porthaethwy,United Kingdom,United Kingdom,Modern cuisine,https://guide.michelin.com/gb/en/isle-of-anglesey/menai-bridge-porthaethwy/restaurant/sosban-the-old-butchers,200
426,1,Northcote,53.80933,-2.4476,Langho,United Kingdom,United Kingdom,Modern British,https://guide.michelin.com/gb/en/lancashire/langho/restaurant/northcote,200
427,1,Yorke Arms,54.13435,-1.8183095,Pateley Bridge,United Kingdom,United Kingdom,Modern cuisine,https://guide.michelin.com/gb/en/north-yorkshire/pateley-bridge/restaurant/yorke-arms,200
428,1,Fraiche,53.38183000000001,-3.04307,Birkenhead,United Kingdom,United Kingdom,Creative,https://guide.michelin.com/gb/en/merseyside/birkenhead/restaurant/fraiche,200
429,1,White Swan,53.83916,-2.25097,Fence,United Kingdom,United Kingdom,Modern British,https://guide.michelin.com/gb/en/lancashire/fence/restaurant/white-swan,200
430,1,Tyddyn Llan,52.92405,-3.44329,Llandrillo,United Kingdom,United Kingdom,Classic cuisine,https://guide.michelin.com/gb/en/denbighshire/llandrillo/restaurant/tyddyn-llan,200
431,1,Ynyshir,52.54476,-3.9449099999999997,Machynlleth,United Kingdom,United Kingdom,Creative,https://guide.michelin.com/gb/en/ceredigion/machynlleth/restaurant/ynyshir,200
432,1,Black Swan,54.21205,-1.1879198999999998,Oldstead,United Kingdom,United Kingdom,Modern British,https://guide.michelin.com/gb/en/north-yorkshire/oldstead/restaurant/black-swan,200
433,1,Simon Radley at Chester Grosvenor,53.19064,-2.8891299999999998,Chester,United Kingdom,United Kingdom,Modern cuisine,https://guide.michelin.com/gb/en/cheshire-west-and-chester/chester/restaurant/simon-radley-at-chester-grosvenor,200
434,1,Star Inn at Harome,54.23101,-1.01023,Harome,United Kingdom,United Kingdom,Modern British,https://guide.michelin.com/gb/en/north-yorkshire/harome/restaurant/star-inn-at-harome,200
435,1,The Man Behind The Curtain,53.798286,-1.5399370000000001,Leeds,United Kingdom,United Kingdom,Creative,https://guide.michelin.com/gb/en/kent/leeds/restaurant/the-man-behind-the-curtain,200
436,1,The Checkers,52.55568,-3.13769,Montgomery/Trefaldwyn,United Kingdom,United Kingdom,French,https://guide.michelin.com/gb/en/powys/montgomery-trefaldwyn/restaurant/the-checkers,404
437,1,Pipe and Glass,53.8955,-0.53301,South Dalton,United Kingdom,United Kingdom,Modern British,https://guide.michelin.com/gb/en/east-riding-of-yorkshire/south-dalton/restaurant/pipe-and-glass,200
438,1,Fischer's at Baslow Hall,53.25055,-1.6269798,Baslow,United Kingdom,United Kingdom,Modern cuisine,https://guide.michelin.com/gb/en/derbyshire/baslow/restaurant/fischer-s-at-baslow-hall,200
439,1,Winteringham Fields,53.687780000000004,-0.59013,Winteringham,United Kingdom,United Kingdom,Modern cuisine,https://guide.michelin.com/gb/en/north-lincolnshire/winteringham/restaurant/winteringham-fields,200
440,1,Thomas Carr @ The Olive Room,51.209476,-4.118807,Ilfracombe,United Kingdom,United Kingdom,Seafood,https://guide.michelin.com/gb/en/devon/ilfracombe/restaurant/thomas-carr-the-olive-room,200
441,1,Walnut Tree,51.84534,-2.95438,Llanddewi Skirrid,United Kingdom,United Kingdom,Modern British,https://guide.michelin.com/gb/en/monmouthshire/llanddewi-skirrid/restaurant/walnut-tree,200
442,1,Paul Ainsworth at No.6,50.541534000000006,-4.9398518,Padstow,United Kingdom,United Kingdom,Modern cuisine,https://guide.michelin.com/gb/en/cornwall/padstow/restaurant/paul-ainsworth-at-no-6,200
443,1,Simpsons,52.46925,-1.9238800999999999,Birmingham,United Kingdom,United Kingdom,Modern cuisine,https://guide.michelin.com/gb/en/west-midlands/birmingham/restaurant/simpsons,200
444,1,Purnell's,52.48268,-1.9018,Birmingham,United Kingdom,United Kingdom,Modern cuisine,https://guide.michelin.com/gb/en/west-midlands/birmingham/restaurant/purnell-s,200
445,1,Adam's,52.47964,-1.9002860000000001,Birmingham,United Kingdom,United Kingdom,Modern cuisine,https://guide.michelin.com/gb/en/west-midlands/birmingham/restaurant/adam-s,200
446,1,Outlaw's Fish Kitchen,50.59206,-4.832,Port Isaac,United Kingdom,United Kingdom,Seafood,https://guide.michelin.com/gb/en/cornwall/port-isaac/restaurant/outlaw-s-fish-kitchen,200
447,1,Carters of Moseley,52.44588,-1.8838400000000002,Birmingham,United Kingdom,United Kingdom,Modern British,https://guide.michelin.com/gb/en/west-midlands/birmingham/restaurant/carters-of-moseley,200
448,1,Peel's,52.4259,-1.7053599999999998,Hampton in Arden,United Kingdom,United Kingdom,Creative British,https://guide.michelin.com/gb/en/west-midlands/hampton-in-arden/restaurant/peel-s,200
449,1,John's House,52.73295,-1.145851,Mountsorrel,United Kingdom,United Kingdom,Modern cuisine,https://guide.michelin.com/gb/en/leicestershire/mountsorrel/restaurant/john-s-house,200
450,1,The Whitebrook,51.759696999999996,-2.686909,Whitebrook,United Kingdom,United Kingdom,Modern British,https://guide.michelin.com/gb/en/monmouthshire/whitebrook/restaurant/the-whitebrook,200
451,1,James Sommerin,51.434387,-3.167951,Penarth,United Kingdom,United Kingdom,Modern cuisine,https://guide.michelin.com/gb/en/the-vale-of-glamorgan/penarth/restaurant/james-sommerin,200
452,1,Driftwood,50.1889,-4.97088,Portscatho,United Kingdom,United Kingdom,Modern cuisine,https://guide.michelin.com/gb/en/cornwall/portscatho/restaurant/driftwood,200
453,1,The Cross at Kenilworth,52.350315,-1.5801147,Kenilworth,United Kingdom,United Kingdom,Classic cuisine,https://guide.michelin.com/gb/en/warwickshire/kenilworth/restaurant/the-cross-at-kenilworth,200
454,1,Masons Arms,50.995470000000005,-3.6716300000000004,Knowstone,United Kingdom,United Kingdom,Classic French,https://guide.michelin.com/gb/en/devon/knowstone/restaurant/masons-arms,200
455,1,Salt,52.18963,-1.7092043000000001,Stratford-upon-Avon,United Kingdom,United Kingdom,Modern British,https://guide.michelin.com/gb/en/warwickshire/stratford-upon-avon/restaurant/salt522869,200
456,1,Le Champignon Sauvage,51.891459999999995,-2.07912,Cheltenham,United Kingdom,United Kingdom,Modern cuisine,https://guide.michelin.com/gb/en/gloucestershire/cheltenham/restaurant/le-champignon-sauvage,200
457,1,Gidleigh Park,50.67658,-3.87354,Chagford,United Kingdom,United Kingdom,Modern cuisine,https://guide.michelin.com/gb/en/devon/chagford/restaurant/gidleigh-park,200
458,1,Hambleton Hall,52.65736999999999,-0.6681199999999999,Upper Hambleton,United Kingdom,United Kingdom,Classic cuisine,https://guide.michelin.com/gb/en/rutland/upper-hambleton/restaurant/hambleton-hall,200
459,1,wilks,51.46737,-2.6069899,Bristol,United Kingdom,United Kingdom,Modern British,https://guide.michelin.com/gb/en/south-gloucestershire/bristol/restaurant/wilks,200
460,1,Bulrush,51.46278,-2.5977580000000002,Bristol,United Kingdom,United Kingdom,Modern British,https://guide.michelin.com/gb/en/south-gloucestershire/bristol/restaurant/bulrush,200
461,1,Casamia,51.447254,-2.5940727999999997,Bristol,United Kingdom,United Kingdom,Creative,https://guide.michelin.com/gb/en/south-gloucestershire/bristol/restaurant/casamia,200
462,1,Paco Tapas,51.44647,-2.5935799999999998,Bristol,United Kingdom,United Kingdom,Spanish,https://guide.michelin.com/gb/en/south-gloucestershire/bristol/restaurant/paco-tapas,200
463,1,Pony & Trap,51.34938,-2.5925993999999997,Chew Magna,United Kingdom,United Kingdom,Modern British,https://guide.michelin.com/gb/en/bath-and-north-east-somerset/chew-magna/restaurant/pony-trap,200
464,1,The Dining Room,51.58376,-2.14954,Malmesbury,United Kingdom,United Kingdom,Asian influences,https://guide.michelin.com/gb/en/wiltshire/malmesbury/restaurant/the-dining-room193454,200
465,1,Bybrook,51.49382,-2.23212,Castle Combe,United Kingdom,United Kingdom,Modern British,https://guide.michelin.com/gb/en/wiltshire/castle-combe/restaurant/bybrook,200
466,1,Restaurant Hywel Jones by Lucknam Park,51.455020000000005,-2.25941,Colerne,United Kingdom,United Kingdom,Modern British,https://guide.michelin.com/gb/en/wiltshire/colerne/restaurant/restaurant-hywel-jones-by-lucknam-park,200
467,1,Olive Tree,51.38707,-2.3627,Bath,United Kingdom,United Kingdom,Modern cuisine,https://guide.michelin.com/gb/en/bath-and-north-east-somerset/bath/restaurant/olive-tree,200
468,1,Lympstone Manor,50.64069,-3.4186062999999995,Lympstone,United Kingdom,United Kingdom,Modern cuisine,https://guide.michelin.com/gb/en/devon/lympstone/restaurant/lympstone-manor,200
469,1,The Neptune,52.9511,0.50927,Hunstanton,United Kingdom,United Kingdom,Modern cuisine,https://guide.michelin.com/gb/en/norfolk/hunstanton/restaurant/the-neptune,200
470,1,Elephant,50.458529999999996,-3.5243800000000003,Torquay,United Kingdom,United Kingdom,Modern British,https://guide.michelin.com/gb/en/torbay/torquay/restaurant/elephant,200
471,1,Oxford Kitchen,51.776733,-1.264794,Oxford,United Kingdom,United Kingdom,Modern British,https://guide.michelin.com/gb/en/oxfordshire/oxford/restaurant/oxford-kitchen,200
472,1,Nut Tree,51.83618,-1.1499,Murcott,United Kingdom,United Kingdom,Traditional British,https://guide.michelin.com/gb/en/oxfordshire/murcott/restaurant/nut-tree,200
473,1,Morston Hall,52.954730000000005,0.98729,Morston,United Kingdom,United Kingdom,Modern British,https://guide.michelin.com/gb/en/norfolk/morston/restaurant/morston-hall,200
474,1,Red Lion Freehouse,51.2736,-1.8007996,East Chisenbury,United Kingdom,United Kingdom,Classic cuisine,https://guide.michelin.com/gb/en/wiltshire/east-chisenbury/restaurant/red-lion-freehouse,200
475,1,Blackbird,51.420887,-1.3493548999999998,Newbury,United Kingdom,United Kingdom,Classic cuisine,https://guide.michelin.com/gb/en/west-berkshire/newbury/restaurant/blackbird552018,200
476,1,Woodspeen,51.415802,-1.353532,Newbury,United Kingdom,United Kingdom,Modern cuisine,https://guide.michelin.com/gb/en/west-berkshire/newbury/restaurant/woodspeen,200
477,1,The Coach,51.571712,-0.7772678000000001,Marlow,United Kingdom,United Kingdom,Modern British,https://guide.michelin.com/gb/en/buckinghamshire/marlow/restaurant/the-coach,200
478,1,Crown,51.524807,-0.7915291,Burchett's Green,United Kingdom,United Kingdom,Regional cuisine,https://guide.michelin.com/gb/en/windsor-and-maidenhead/burchett-s-green/restaurant/crown442549,200
479,1,L'Ortolan,51.40833,-0.9542898000000001,Shinfield,United Kingdom,United Kingdom,French,https://guide.michelin.com/gb/en/wokingham/shinfield/restaurant/l-ortolan,200
480,1,Hinds Head,51.51265,-0.6964100000000001,Bray,United Kingdom,United Kingdom,Traditional British,https://guide.michelin.com/gb/en/buckinghamshire/bray/restaurant/hinds-head,200
481,1,Black Rat,51.057959999999994,-1.3069496999999999,Winchester,United Kingdom,United Kingdom,Modern cuisine,https://guide.michelin.com/gb/en/hampshire/winchester/restaurant/black-rat,200
482,1,Matt Worswick at The Latymer,51.35764,-0.7086128,Bagshot,United Kingdom,United Kingdom,Modern cuisine,https://guide.michelin.com/gb/en/surrey/bagshot/restaurant/matt-worswick-at-the-latymer,200
483,1,Coworth Park,51.40463,-0.616715,Ascot,United Kingdom,United Kingdom,Modern cuisine,https://guide.michelin.com/gb/en/windsor-and-maidenhead/ascot/restaurant/coworth-park,200
484,1,Tudor Room,51.417590000000004,-0.545847,Egham,United Kingdom,United Kingdom,Modern cuisine,https://guide.michelin.com/gb/en/surrey/egham/restaurant/tudor-room,404
485,1,The Glasshouse,51.4771,-0.28574,Kew,United Kingdom,United Kingdom,Modern cuisine,https://guide.michelin.com/gb/en/greater-london/kew/restaurant/the-glasshouse,200
486,1,La Trompette,51.49222,-0.25619000000000003,Chiswick,United Kingdom,United Kingdom,Modern British,https://guide.michelin.com/gb/en/greater-london/chiswick/restaurant/la-trompette,200
487,1,Tim Allen's Flitch of Bacon,51.867470000000004,0.404134,Little Dunmow,United Kingdom,United Kingdom,Modern British,https://guide.michelin.com/gb/en/essex/little-dunmow/restaurant/tim-allen-s-flitch-of-bacon,200
488,1,River Café,51.48395,-0.22423,Hammersmith,United Kingdom,United Kingdom,Italian,https://guide.michelin.com/gb/en/greater-london/hammersmith/restaurant/river-cafe,200
489,1,Kitchen W8,51.499179999999996,-0.19692,Kensington,United Kingdom,United Kingdom,Modern cuisine,https://guide.michelin.com/gb/en/greater-london/kensington/restaurant/kitchen-w8,200
490,1,Trishna,51.51834,-0.153031,Marylebone,United Kingdom,United Kingdom,Indian,https://guide.michelin.com/gb/en/greater-london/marylebone/restaurant/trishna,200
491,1,Roganic,51.518314000000004,-0.1520875,Marylebone,United Kingdom,United Kingdom,Creative British,https://guide.michelin.com/gb/en/greater-london/marylebone/restaurant/roganic,200
492,1,Locanda Locatelli,51.51514,-0.15675,Marylebone,United Kingdom,United Kingdom,Italian,https://guide.michelin.com/gb/en/greater-london/marylebone/restaurant/locanda-locatelli,200
493,1,Texture,51.51488,-0.15664,Marylebone,United Kingdom,United Kingdom,Creative,https://guide.michelin.com/gb/en/greater-london/marylebone/restaurant/texture,200
494,1,Portland,51.519726,-0.142555,Regent's Park,United Kingdom,United Kingdom,Modern cuisine,https://guide.michelin.com/gb/en/greater-london/regent-s-park/restaurant/portland,200
495,1,Harwood Arms,51.48291,-0.19651,Fulham,United Kingdom,United Kingdom,Modern British,https://guide.michelin.com/gb/en/greater-london/fulham/restaurant/harwood-arms,200
496,1,Pied à Terre,51.519,-0.13510999999999998,Bloomsbury,United Kingdom,United Kingdom,Creative,https://guide.michelin.com/gb/en/greater-london/bloomsbury/restaurant/pied-a-terre,200
497,1,The Ninth,51.51875,-0.1350068,Bloomsbury,United Kingdom,United Kingdom,Mediterranean cuisine,https://guide.michelin.com/gb/en/greater-london/bloomsbury/restaurant/the-ninth,200
498,1,Kai,51.50871,-0.15162,Mayfair,United Kingdom,United Kingdom,Chinese,https://guide.michelin.com/gb/en/greater-london/mayfair/restaurant/kai123638,200
499,1,Pollen Street Social,51.5133,-0.14234000000000002,Mayfair,United Kingdom,United Kingdom,Creative,https://guide.michelin.com/gb/en/greater-london/mayfair/restaurant/pollen-street-social,200
500,1,Hakkasan Mayfair,51.51037,-0.14475,Mayfair,United Kingdom,United Kingdom,Chinese,https://guide.michelin.com/gb/en/greater-london/mayfair/restaurant/hakkasan-mayfair,200
501,1,The Square,51.510690000000004,-0.14401,Mayfair,United Kingdom,United Kingdom,Creative French,https://guide.michelin.com/gb/en/greater-london/mayfair/restaurant/the-square69391,200
502,1,Alyn Williams at The Westbury,51.511179999999996,-0.14303,Mayfair,United Kingdom,United Kingdom,Modern cuisine,https://guide.michelin.com/gb/en/greater-london/mayfair/restaurant/alyn-williams-at-the-westbury,200
503,1,Benares,51.50973,-0.14494,Mayfair,United Kingdom,United Kingdom,Indian,https://guide.michelin.com/gb/en/greater-london/mayfair/restaurant/benares,200
504,1,Hakkasan Hanway Place,51.5171,-0.13144,Bloomsbury,United Kingdom,United Kingdom,Chinese,https://guide.michelin.com/gb/en/greater-london/bloomsbury/restaurant/hakkasan-hanway-place,200
505,1,Social Eating House,51.51383,-0.13673,Soho,United Kingdom,United Kingdom,Modern cuisine,https://guide.michelin.com/gb/en/greater-london/soho/restaurant/social-eating-house,200
506,1,Galvin at Windows,51.505390000000006,-0.15039,Mayfair,United Kingdom,United Kingdom,Modern cuisine,https://guide.michelin.com/gb/en/greater-london/mayfair/restaurant/galvin-at-windows,200
507,1,Murano,51.50707,-0.14722000000000002,Mayfair,United Kingdom,United Kingdom,Italian,https://guide.michelin.com/gb/en/greater-london/mayfair/restaurant/murano,200
508,1,Marcus,51.501709999999996,-0.15614,Belgravia,United Kingdom,United Kingdom,Modern cuisine,https://guide.michelin.com/gb/en/greater-london/belgravia/restaurant/marcus,200
509,1,Sabor,51.511368,-0.1396773,Mayfair,United Kingdom,United Kingdom,Spanish,https://guide.michelin.com/gb/en/greater-london/mayfair/restaurant/sabor,200
510,1,Clock House,51.30044,-0.49287,Ripley,United Kingdom,United Kingdom,Modern cuisine,https://guide.michelin.com/gb/en/surrey/ripley/restaurant/clock-house,200
511,1,Yauatcha Soho,51.51367,-0.1352,Soho,United Kingdom,United Kingdom,Chinese,https://guide.michelin.com/gb/en/greater-london/soho/restaurant/yauatcha-soho,200
512,1,Céleste,51.502421999999996,-0.15226170000000003,Belgravia,United Kingdom,United Kingdom,Creative French,https://guide.michelin.com/gb/en/greater-london/belgravia/restaurant/celeste,200
513,1,Gymkhana,51.50854,-0.14154,Mayfair,United Kingdom,United Kingdom,Indian,https://guide.michelin.com/gb/en/greater-london/mayfair/restaurant/gymkhana,200
514,1,Amaya,51.49912,-0.15730999999999998,Belgravia,United Kingdom,United Kingdom,Indian,https://guide.michelin.com/gb/en/greater-london/belgravia/restaurant/amaya,200
515,1,Pétrus,51.49951,-0.15662,Belgravia,United Kingdom,United Kingdom,French,https://guide.michelin.com/gb/en/greater-london/belgravia/restaurant/petrus284688,200
516,1,Veeraswamy,51.51008,-0.13809000000000002,Mayfair,United Kingdom,United Kingdom,Indian,https://guide.michelin.com/gb/en/greater-london/mayfair/restaurant/veeraswamy,200
517,1,Barrafina,51.51375,-0.1318,Soho,United Kingdom,United Kingdom,Spanish,https://guide.michelin.com/gb/en/greater-london/soho/restaurant/barrafina,200
518,1,Hide,51.506077000000005,-0.144289,Mayfair,United Kingdom,United Kingdom,Modern British,https://guide.michelin.com/gb/en/greater-london/mayfair/restaurant/hide,200
519,1,Ritz Restaurant,51.50728,-0.14140999999999998,Westminster,United Kingdom,United Kingdom,Modern British,https://guide.michelin.com/gb/en/greater-london/westminster/restaurant/ritz-restaurant,200
520,1,Elystan Street,51.491240000000005,-0.16724,Chelsea,United Kingdom,United Kingdom,Modern British,https://guide.michelin.com/gb/en/greater-london/chelsea/restaurant/elystan-street,200
521,1,Seven Park Place,51.50623,-0.13998,Saint James's,United Kingdom,United Kingdom,Modern cuisine,https://guide.michelin.com/gb/en/greater-london/saint-james-s/restaurant/seven-park-place,200
522,1,Ikoyi,51.509212,-0.1334389,Saint James's,United Kingdom,United Kingdom,Creative,https://guide.michelin.com/gb/en/greater-london/saint-james-s/restaurant/ikoyi,200
523,1,Aquavit,51.508713,-0.1334072,Saint James's,United Kingdom,United Kingdom,Scandinavian,https://guide.michelin.com/gb/en/greater-london/saint-james-s/restaurant/aquavit501082,200
524,1,Five Fields,51.49168,-0.16124000000000002,Chelsea,United Kingdom,United Kingdom,Modern cuisine,https://guide.michelin.com/gb/en/greater-london/chelsea/restaurant/five-fields,200
525,1,Dining Room at The Goring,51.49763,-0.14556,Victoria,United Kingdom,United Kingdom,Traditional British,https://guide.michelin.com/gb/en/greater-london/victoria/restaurant/dining-room-at-the-goring,200
526,1,St John,51.52064,-0.10132999999999999,Clerkenwell,United Kingdom,United Kingdom,Traditional British,https://guide.michelin.com/gb/en/greater-london/clerkenwell/restaurant/st-john,200
527,1,Quilon,51.49863,-0.13726,Victoria,United Kingdom,United Kingdom,Indian,https://guide.michelin.com/gb/en/greater-london/victoria/restaurant/quilon,200
528,1,Club Gascon,51.518570000000004,-0.10031,London,United Kingdom,United Kingdom,French,https://guide.michelin.com/gb/en/greater-london/london/restaurant/club-gascon,200
529,1,A. Wong,51.493179999999995,-0.14128,Victoria,United Kingdom,United Kingdom,Chinese,https://guide.michelin.com/gb/en/greater-london/victoria/restaurant/a-wong,200
530,1,The Clove Club,51.52711,-0.07927000000000001,Shoreditch,United Kingdom,United Kingdom,Modern cuisine,https://guide.michelin.com/gb/en/greater-london/shoreditch/restaurant/the-clove-club,200
531,1,Leroy,51.524086,-0.0815337,Shoreditch,United Kingdom,United Kingdom,Modern British,https://guide.michelin.com/gb/en/greater-london/shoreditch/restaurant/leroy,200
532,1,Angler,51.51894,-0.08625,Finsbury,United Kingdom,United Kingdom,Seafood,https://guide.michelin.com/gb/en/greater-london/finsbury/restaurant/angler392235,200
533,1,Brat,51.52427,-0.0767681,Shoreditch,United Kingdom,United Kingdom,Traditional British,https://guide.michelin.com/gb/en/greater-london/shoreditch/restaurant/brat,200
534,1,Lyle's,51.52378,-0.07704,Shoreditch,United Kingdom,United Kingdom,Modern British,https://guide.michelin.com/gb/en/greater-london/shoreditch/restaurant/lyle-s,200
535,1,Galvin La Chapelle,51.52032,-0.0781,Spitalfields,United Kingdom,United Kingdom,French,https://guide.michelin.com/gb/en/greater-london/spitalfields/restaurant/galvin-la-chapelle,200
536,1,City Social,51.515209999999996,-0.08431,City of London,United Kingdom,United Kingdom,Modern cuisine,https://guide.michelin.com/gb/en/greater-london/city-of-london/restaurant/city-social,200
537,1,La Dame de Pic,51.510372,-0.07889810000000001,City of London,United Kingdom,United Kingdom,Modern French,https://guide.michelin.com/gb/en/greater-london/city-of-london/restaurant/la-dame-de-pic,200
538,1,Story,51.50268,-0.07774,Bermondsey,United Kingdom,United Kingdom,Modern cuisine,https://guide.michelin.com/gb/en/greater-london/bermondsey/restaurant/story,200
539,1,Trinity,51.463359999999994,-0.14148,Clapham Common,United Kingdom,United Kingdom,Modern cuisine,https://guide.michelin.com/gb/en/greater-london/clapham-common/restaurant/trinity,200
540,1,Chez Bruce,51.44607,-0.16552999999999998,Wandsworth,United Kingdom,United Kingdom,French,https://guide.michelin.com/gb/en/greater-london/wandsworth/restaurant/chez-bruce,200
541,1,Sorrel,51.228825,-0.3346741,Dorking,United Kingdom,United Kingdom,Modern British,https://guide.michelin.com/gb/en/surrey/dorking/restaurant/sorrel545459,200
542,1,Restaurant Tristan,51.062346999999995,-0.326034,Horsham,United Kingdom,United Kingdom,Modern British,https://guide.michelin.com/gb/en/west-sussex/horsham/restaurant/restaurant-tristan,200
543,1,Gravetye Manor,51.08932,-0.05691,Gravetye,United Kingdom,United Kingdom,Modern British,https://guide.michelin.com/gb/en/west-sussex/gravetye/restaurant/gravetye-manor,200
544,1,The Sportsman,51.343920000000004,0.95885,Seasalter,United Kingdom,United Kingdom,Modern British,https://guide.michelin.com/gb/en/kent/seasalter/restaurant/the-sportsman,200
545,1,West House,51.11521,0.64215,Biddenden,United Kingdom,United Kingdom,Modern British,https://guide.michelin.com/gb/en/kent/biddenden/restaurant/west-house,200
546,1,Fordwich Arms,51.295284,1.1261871,Fordwich,United Kingdom,United Kingdom,Modern cuisine,https://guide.michelin.com/gb/en/kent/fordwich/restaurant/fordwich-arms,200
547,1,Samphire,49.18488,-2.1057,Saint Helier/Saint-Hélier,United Kingdom,United Kingdom,Modern cuisine,https://guide.michelin.com/gb/en/saint-helier/saint-helier-saint-helier/restaurant/samphire392987,200
548,1,Bohemia,49.181225,-2.102417,Saint Helier/Saint-Hélier,United Kingdom,United Kingdom,Modern cuisine,https://guide.michelin.com/gb/en/saint-helier/saint-helier-saint-helier/restaurant/bohemia,200
549,2,SENNS.Restaurant,47.83636,13.063889999999999,Salzburg,Austria,Austria,Creative,https://guide.michelin.com/at/en/salzburg-region/salzburg/restaurant/senns-restaurant,200
550,2,Ikarus,47.795359999999995,13.00695,Salzburg,Austria,Austria,Creative,https://guide.michelin.com/at/en/salzburg-region/salzburg/restaurant/ikarus,200
551,2,Mraz & Sohn,48.23129,16.37637,Wien,Austria,Austria,Creative,https://guide.michelin.com/at/en/vienna/wien/restaurant/mraz-sohn,200
552,2,Konstantin Filippou,48.21056,16.37996,Wien,Austria,Austria,Modern cuisine,https://guide.michelin.com/at/en/vienna/wien/restaurant/konstantin-filippou,200
553,2,Silvio Nickol Gourmet Restaurant,48.20558,16.376929999999998,Wien,Austria,Austria,Modern cuisine,https://guide.michelin.com/at/en/vienna/wien/restaurant/silvio-nickol-gourmet-restaurant,200
554,2,Steirereck im Stadtpark,48.202290000000005,16.3805,Wien,Austria,Austria,Creative,https://guide.michelin.com/at/en/vienna/wien/restaurant/steirereck-im-stadtpark,200
555,2,Baumé,37.4285,-122.14272,South San Francisco,California,United States,Contemporary,https://guide.michelin.com/us/en/california/south-san-francisco/restaurant/baume,200
556,2,Commis,37.82476,-122.25505,San Francisco,California,United States,Contemporary,https://guide.michelin.com/us/en/california/san-francisco/restaurant/commis,200
557,2,Californios,37.75555,-122.41714499999999,San Francisco,California,United States,Mexican,https://guide.michelin.com/us/en/california/san-francisco/restaurant/californios,200
558,2,Lazy Bear,37.760203999999995,-122.41968999999999,San Francisco,California,United States,Contemporary,https://guide.michelin.com/us/en/california/san-francisco/restaurant/lazy-bear,200
559,2,Saison,37.76327,-122.41543,San Francisco,California,United States,Californian,https://guide.michelin.com/us/en/california/san-francisco/restaurant/saison,200
560,2,Campton Place,37.789229999999996,-122.40665,San Francisco,California,United States,Indian,https://guide.michelin.com/us/en/california/san-francisco/restaurant/campton-place,200
561,2,Coi,37.798120000000004,-122.40331,San Francisco,California,United States,Contemporary,https://guide.michelin.com/us/en/california/san-francisco/restaurant/coi,200
562,2,Acquerello,37.79167,-122.42131,San Francisco,California,United States,Italian,https://guide.michelin.com/us/en/california/san-francisco/restaurant/acquerello,200
563,2,Urasawa,34.067352,-118.40066999999999,Los Angeles,California,United States,Japanese,https://guide.michelin.com/us/en/california/us-los-angeles/restaurant/urasawa,200
564,2,Sushi Ginza Onodera,34.08238,-118.37653999999999,Los Angeles,California,United States,Japanese,https://guide.michelin.com/us/en/california/us-los-angeles/restaurant/sushi-ginza-onodera559850,200
565,2,Somni,34.070095,-118.37648999999999,Los Angeles,California,United States,Contemporary,https://guide.michelin.com/us/en/california/us-los-angeles/restaurant/somni,200
566,2,Providence,34.083523,-118.33018999999999,Los Angeles,California,United States,Seafood,https://guide.michelin.com/us/en/california/us-los-angeles/restaurant/providence,200
567,2,n/naka,34.025259999999996,-118.41206000000001,Los Angeles,California,United States,Contemporary,https://guide.michelin.com/us/en/california/us-los-angeles/restaurant/n-naka,200
568,2,Vespertine,34.024204,-118.38166000000001,Los Angeles,California,United States,Contemporary,https://guide.michelin.com/us/en/california/us-los-angeles/restaurant/vespertine,200
569,2,Smyth,41.885,-87.660736,Chicago,Chicago,United States,Contemporary,https://guide.michelin.com/us/en/illinois/chicago/restaurant/smyth,200
570,2,Oriole,41.886196000000005,-87.64513000000001,Chicago,Chicago,United States,Contemporary,https://guide.michelin.com/us/en/illinois/chicago/restaurant/oriole,200
571,2,Acadia,41.85904,-87.62562,Chicago,Chicago,United States,Contemporary,https://guide.michelin.com/us/en/illinois/chicago/restaurant/acadia,200
572,2,KOKS,62.136669999999995,-7.022025,Leynar,Denmark,Denmark,Creative,https://guide.michelin.com/dk/en/faroe-islands/leynar/restaurant/koks558780,200
573,2,Henne Kirkeby Kro,55.72682,8.242021000000001,Henne,Denmark,Denmark,Classic cuisine,https://guide.michelin.com/dk/en/southern-denmark/henne/restaurant/henne-kirkeby-kro,200
574,2,a‚o‚c,55.68305,12.589210000000001,København,Denmark,Denmark,Modern cuisine,https://guide.michelin.com/dk/en/capital-region/kobenhavn/restaurant/a%E2%80%9Ao%E2%80%9Ac,200
575,2,noma,55.683319999999995,12.61006,København,Denmark,Denmark,Creative,https://guide.michelin.com/dk/en/capital-region/kobenhavn/restaurant/noma,200
576,2,Kadeau Copenhagen,55.67219,12.58848,København,Denmark,Denmark,Modern cuisine,https://guide.michelin.com/dk/en/capital-region/kobenhavn/restaurant/kadeau-copenhagen,200
577,2,Spondi,37.96525,23.742971,Athína,Greece,Greece,French,https://guide.michelin.com/gr/en/attica/athina/restaurant/spondi,200
578,2,Sun Tung Lok,22.30099,114.17221,Hong Kong,Hong Kong,China,Cantonese,https://guide.michelin.com/hk/en/hong-kong-region/hong-kong/restaurant/sun-tung-lok,200
579,2,Yan Toh Heen,22.293337,114.17395,Hong Kong,Hong Kong,China,Cantonese,https://guide.michelin.com/hk/en/hong-kong-region/hong-kong/restaurant/yan-toh-heen,200
580,2,Tin Lung Heen,22.30357,114.16006999999999,Hong Kong,Hong Kong,China,Cantonese,https://guide.michelin.com/hk/en/hong-kong-region/hong-kong/restaurant/tin-lung-heen,200
581,2,Tenku RyuGin,22.30331,114.16021,Hong Kong,Hong Kong,China,Japanese,https://guide.michelin.com/hk/en/hong-kong-region/hong-kong/restaurant/tenku-ryugin,200
582,2,Forum,22.281616,114.1824,Hong Kong,Hong Kong,China,Cantonese,https://guide.michelin.com/hk/en/hong-kong-region/hong-kong/restaurant/forum,200
583,2,Sushi Saito,22.286467000000002,114.15677,Hong Kong,Hong Kong,China,Sushi,https://guide.michelin.com/hk/en/hong-kong-region/hong-kong/restaurant/sushi-saito,200
584,2,Pierre,22.282127,114.15948,Hong Kong,Hong Kong,China,French contemporary,https://guide.michelin.com/hk/en/hong-kong-region/hong-kong/restaurant/pierre,200
585,2,Ying Jee Club,22.284338,114.156654,Hong Kong,Hong Kong,China,Cantonese,https://guide.michelin.com/hk/en/hong-kong-region/hong-kong/restaurant/ying-jee-club,200
586,2,Écriture,22.28315,114.1554,Hong Kong,Hong Kong,China,French contemporary,https://guide.michelin.com/hk/en/hong-kong-region/hong-kong/restaurant/ecriture,200
587,2,Ta Vie,22.282766,114.15529,Hong Kong,Hong Kong,China,Innovative,https://guide.michelin.com/hk/en/hong-kong-region/hong-kong/restaurant/ta-vie,200
588,2,Amber,22.280596,114.15763999999999,Hong Kong,Hong Kong,China,French contemporary,https://guide.michelin.com/hk/en/hong-kong-region/hong-kong/restaurant/amber569032,200
589,2,Kashiwaya,22.280642999999998,114.15673999999999,Hong Kong,Hong Kong,China,Japanese,https://guide.michelin.com/hk/en/hong-kong-region/hong-kong/restaurant/kashiwaya,200
590,2,Onyx,47.49712,19.05067,Budapest,Hungary,Hungary,Modern cuisine,https://guide.michelin.com/hu/en/central-hungary/budapest/restaurant/onyx,200
591,2,Feng Wei Ju,22.18996,113.54794,Macau,Macau,China,Hunanese and Sichuan,https://guide.michelin.com/mo/en/macau-region/macau/restaurant/feng-wei-ju,200
592,2,Golden Flower,22.18753,113.54806,Macau,Macau,China,Chinese,https://guide.michelin.com/mo/en/macau-region/macau/restaurant/golden-flower,200
593,2,Mizumi (Macau),22.188755,113.54488,Macau,Macau,China,Japanese,https://guide.michelin.com/mo/en/macau-region/macau/restaurant/mizumi-macau,200
594,2,The Tasting Room,22.14958,113.56505,Macau,Macau,China,French contemporary,https://guide.michelin.com/mo/en/macau-region/macau/restaurant/the-tasting-room,200
595,2,Alain Ducasse at Morpheus,22.14293,113.563774,Macau,Macau,China,French contemporary,https://guide.michelin.com/mo/en/macau-region/macau/restaurant/alain-ducasse-at-morpheus,200
596,2,L'Atelier de Joël Robuchon,40.742905,-74.00769,New York,New York City,United States,French,https://guide.michelin.com/us/en/new-york-state/new-york/restaurant/l-atelier-de-joel-robuchon562505,200
597,2,Jungsik,40.718685,-74.00910999999999,New York,New York City,United States,Korean,https://guide.michelin.com/us/en/new-york-state/new-york/restaurant/jungsik,200
598,2,Atera,40.716797,-74.00565,New York,New York City,United States,Contemporary,https://guide.michelin.com/us/en/new-york-state/new-york/restaurant/atera,200
599,2,Jean-Georges,40.76907,-73.98155,New York,New York City,United States,Contemporary,https://guide.michelin.com/us/en/new-york-state/new-york/restaurant/jean-georges,200
600,2,Marea,40.76749,-73.98114,New York,New York City,United States,Seafood,https://guide.michelin.com/us/en/new-york-state/new-york/restaurant/marea,200
601,2,Gabriel Kreuther,40.75397,-73.982025,New York,New York City,United States,Contemporary,https://guide.michelin.com/us/en/new-york-state/new-york/restaurant/gabriel-kreuther,200
602,2,Ichimura at Uchū,40.721832,-73.99011999999999,New York,New York City,United States,Japanese,https://guide.michelin.com/us/en/new-york-state/new-york/restaurant/ichimura-at-uchu,200
603,2,Sushi Ginza Onodera,40.752396000000005,-73.981575,New York,New York City,United States,Japanese,https://guide.michelin.com/us/en/new-york-state/new-york/restaurant/sushi-ginza-onodera,200
604,2,Ko,40.72909,-73.98448,New York,New York City,United States,Contemporary,https://guide.michelin.com/us/en/new-york-state/new-york/restaurant/ko,200
605,2,The Modern,40.76106,-73.97628,New York,New York City,United States,Contemporary,https://guide.michelin.com/us/en/new-york-state/new-york/restaurant/the-modern,200
606,2,Aquavit,40.76078,-73.97214,New York,New York City,United States,Scandinavian,https://guide.michelin.com/us/en/new-york-state/new-york/restaurant/aquavit,200
607,2,Daniel,40.7666,-73.96745,New York,New York City,United States,French,https://guide.michelin.com/us/en/new-york-state/new-york/restaurant/daniel,200
608,2,Aska,40.71222,-73.96642,New York,New York City,United States,Scandinavian,https://guide.michelin.com/us/en/new-york-state/new-york/restaurant/aska,200
609,2,Blanca,40.70492,-73.93354000000001,New York,New York City,United States,Contemporary,https://guide.michelin.com/us/en/new-york-state/new-york/restaurant/blanca,200
610,2,Patrick Guilbaud,53.338930000000005,-6.25283,City Centre,Ireland,Ireland,Modern French,https://guide.michelin.com/ie/en/dublin/city-centre/restaurant/patrick-guilbaud,200
611,2,Oro,-22.98601,-43.224709999999995,Rio de Janeiro - 22441,Rio de Janeiro,Brasil,creative,https://guide.michelin.com/br/en/rio-de-janeiro-region/rio-de-janeiro/restaurant/oro,200
612,2,Tuju,-23.55653,-46.69083,São Paulo - 05416,Sao Paulo,Brasil,creative,https://guide.michelin.com/br/en/sao-paulo-region/sao-paulo/restaurant/tuju,200
613,2,D.O.M.,-23.56618,-46.66742,São Paulo - 01411,Sao Paulo,Brasil,creative,https://guide.michelin.com/br/en/sao-paulo-region/sao-paulo/restaurant/d-o-m,200
614,2,Kojima,37.52559,127.04193000000001,Seoul,South Korea,South Korea,Sushi,https://guide.michelin.com/kr/en/seoul-capital-area/kr-seoul/restaurant/kojima,200
615,2,Jungsik,37.525585,127.04106999999999,Seoul,South Korea,South Korea,Korean contemporary,https://guide.michelin.com/kr/en/seoul-capital-area/kr-seoul/restaurant/jungsik511965,200
616,2,Kwonsooksoo,37.526752,127.03571000000001,Seoul,South Korea,South Korea,Korean,https://guide.michelin.com/kr/en/seoul-capital-area/kr-seoul/restaurant/kwonsooksoo,200
617,2,Mingles,37.52219,127.0392,Seoul,South Korea,South Korea,Korean contemporary,https://guide.michelin.com/kr/en/seoul-capital-area/kr-seoul/restaurant/mingles,200
618,2,Alla Prima,37.518440000000005,127.03008,Seoul,South Korea,South Korea,Innovative,https://guide.michelin.com/kr/en/seoul-capital-area/kr-seoul/restaurant/alla-prima,200
619,2,Waku Ghin,1.283175,103.8598,Singapore,Singapore,Singapore,Japanese contemporary,https://guide.michelin.com/sg/en/singapore-region/singapore/restaurant/waku-ghin,200
620,2,Odette,1.2896458999999998,103.8516,Singapore,Singapore,Singapore,French contemporary,https://guide.michelin.com/sg/en/singapore-region/singapore/restaurant/odette,200
621,2,Shoukouwa,1.2863698000000001,103.854,Singapore,Singapore,Singapore,Sushi,https://guide.michelin.com/sg/en/singapore-region/singapore/restaurant/shoukouwa,200
622,2,Shisen Hanten,1.302395,103.8365,Singapore,Singapore,Singapore,Chinese,https://guide.michelin.com/sg/en/singapore-region/singapore/restaurant/shisen-hanten,200
623,2,Les Amis,1.3066648,103.8314,Singapore,Singapore,Singapore,French,https://guide.michelin.com/sg/en/singapore-region/singapore/restaurant/les-amis,200
624,2,Fäviken Magasinet,63.43626,13.293370000000001,Järpen,Sweden,Sweden,Creative,https://guide.michelin.com/se/en/jamtland/jarpen/restaurant/faviken-magasinet,200
625,2,Gastrologik,59.33365,18.0807,Stockholm,Sweden,Sweden,Creative,https://guide.michelin.com/se/en/stockholm-region/stockholm/restaurant/gastrologik,200
626,2,Oaxen Krog,59.322342000000006,18.101831,Stockholm,Sweden,Sweden,Creative,https://guide.michelin.com/se/en/stockholm-region/stockholm/restaurant/oaxen-krog,200
627,2,Vollmers,55.604427,12.995847999999999,Malmö,Sweden,Sweden,Creative,https://guide.michelin.com/se/en/skane/malmo/restaurant/vollmers,200
628,2,Daniel Berlin,55.61246,13.99265,Skåne-Tranås,Sweden,Sweden,Creative,https://guide.michelin.com/se/en/skane/skane-tranas/restaurant/daniel-berlin,200
629,2,RAW,25.082666,121.559525,Taipei,Taipei,Taiwan,Innovative,https://guide.michelin.com/tw/en/taipei-region/taipei/restaurant/raw,200
630,2,Shoun RyuGin,25.08258,121.5595,Taipei,Taipei,Taiwan,Japanese contemporary,https://guide.michelin.com/tw/en/taipei-region/taipei/restaurant/shoun-ryugin,200
631,2,Taïrroir,25.082718,121.559296,Taipei,Taipei,Taiwan,Innovative,https://guide.michelin.com/tw/en/taipei-region/taipei/restaurant/tairroir,200
632,2,Sushi Amamoto,25.037945,121.55487,Taipei,Taipei,Taiwan,Sushi,https://guide.michelin.com/tw/en/taipei-region/taipei/restaurant/sushi-amamoto,200
633,2,The Guest House,25.04486,121.52198,Taipei,Taipei,Taiwan,Sichuan-Huai Yang,https://guide.michelin.com/tw/en/taipei-region/taipei/restaurant/the-guest-house,200
634,2,Gaggan,13.737679,100.54214499999999,Bangkok,Thailand,Thailand,Innovative,https://guide.michelin.com/th/en/bangkok-region/bangkok/restaurant/gaggan,200
635,2,Sühring,13.710947,100.545654,Bangkok,Thailand,Thailand,European contemporary,https://guide.michelin.com/th/en/bangkok-region/bangkok/restaurant/suhring,200
636,2,Mezzaluna,13.722148,100.51691,Bangkok,Thailand,Thailand,Innovative,https://guide.michelin.com/th/en/bangkok-region/bangkok/restaurant/mezzaluna,200
637,2,Le Normandie,13.723197,100.513855,Bangkok,Thailand,Thailand,French contemporary,https://guide.michelin.com/th/en/bangkok-region/bangkok/restaurant/le-normandie,200
638,2,minibar,38.896294,-77.02386,"Washington, D.C.",Washington DC,United States,Contemporary,https://guide.michelin.com/us/en/washington/washington-dc/restaurant/minibar,200
639,2,Pineapple and Pearls,38.880707,-76.99514,"Washington, D.C.",Washington DC,United States,Contemporary,https://guide.michelin.com/us/en/washington/washington-dc/restaurant/pineapple-and-pearls,200
640,2,Andrew Fairlie at Gleneagles,56.283390000000004,-3.75149,Auchterarder,United Kingdom,United Kingdom,Creative French,https://guide.michelin.com/gb/en/perth-and-kinross/auchterarder/restaurant/andrew-fairlie-at-gleneagles,200
641,2,L'Enclume,54.201885,-2.953807,Cartmel,United Kingdom,United Kingdom,Creative,https://guide.michelin.com/gb/en/cumbria/cartmel/restaurant/l-enclume,200
642,2,Raby Hunt,54.566469999999995,-1.6892580000000001,Summerhouse,United Kingdom,United Kingdom,Modern British,https://guide.michelin.com/gb/en/darlington/summerhouse/restaurant/raby-hunt,200
643,2,Moor Hall,53.541619999999995,-2.8895494999999998,Aughton,United Kingdom,United Kingdom,Modern British,https://guide.michelin.com/gb/en/lancashire/aughton/restaurant/moor-hall,200
644,2,Restaurant Sat Bains,52.924380000000006,-1.1733198,Nottingham,United Kingdom,United Kingdom,Creative,https://guide.michelin.com/gb/en/nottingham/nottingham/restaurant/restaurant-sat-bains,200
645,2,Restaurant Nathan Outlaw,50.594086,-4.82854,Port Isaac,United Kingdom,United Kingdom,Seafood,https://guide.michelin.com/gb/en/cornwall/port-isaac/restaurant/restaurant-nathan-outlaw,200
646,2,Belmond Le Manoir aux Quat' Saisons,51.71674,-1.0918700000000001,Great Milton,United Kingdom,United Kingdom,French,https://guide.michelin.com/gb/en/oxfordshire/great-milton/restaurant/belmond-le-manoir-aux-quat-saisons,200
647,2,Midsummer House,52.21243,0.12779000000000001,Cambridge,United Kingdom,United Kingdom,Modern cuisine,https://guide.michelin.com/gb/en/cambridgeshire/cambridge/restaurant/midsummer-house,200
648,2,Hand and Flowers,51.57031,-0.78113,Marlow,United Kingdom,United Kingdom,Modern British,https://guide.michelin.com/gb/en/buckinghamshire/marlow/restaurant/hand-and-flowers,200
649,2,Ledbury,51.516740000000006,-0.20007,North Kensington,United Kingdom,United Kingdom,Modern cuisine,https://guide.michelin.com/gb/en/greater-london/north-kensington/restaurant/ledbury,200
650,2,CORE by Clare Smyth,51.512609999999995,-0.2030516,North Kensington,United Kingdom,United Kingdom,Modern British,https://guide.michelin.com/gb/en/greater-london/north-kensington/restaurant/core-by-clare-smyth,200
651,2,Le Gavroche,51.51127,-0.15517,Mayfair,United Kingdom,United Kingdom,French,https://guide.michelin.com/gb/en/greater-london/mayfair/restaurant/le-gavroche,200
652,2,Kitchen Table at Bubbledogs,51.52041,-0.13647,Bloomsbury,United Kingdom,United Kingdom,Modern cuisine,https://guide.michelin.com/gb/en/greater-london/bloomsbury/restaurant/kitchen-table-at-bubbledogs,200
653,2,Hélène Darroze at The Connaught,51.5101,-0.1495701,Mayfair,United Kingdom,United Kingdom,Modern cuisine,https://guide.michelin.com/gb/en/greater-london/mayfair/restaurant/helene-darroze-at-the-connaught,200
654,2,Dinner by Heston Blumenthal,51.50208,-0.16011,Hyde Park,United Kingdom,United Kingdom,Traditional British,https://guide.michelin.com/gb/en/greater-london/hyde-park/restaurant/dinner-by-heston-blumenthal,200
655,2,Umu,51.5113,-0.14455,Mayfair,United Kingdom,United Kingdom,Japanese,https://guide.michelin.com/gb/en/greater-london/mayfair/restaurant/umu,200
656,2,Sketch (The Lecture Room & Library),51.51287,-0.14135999999999999,Mayfair,United Kingdom,United Kingdom,Modern French,https://guide.michelin.com/gb/en/greater-london/mayfair/restaurant/sketch-the-lecture-room-library,200
657,2,Greenhouse,51.507690000000004,-0.14926,Mayfair,United Kingdom,United Kingdom,Creative,https://guide.michelin.com/gb/en/greater-london/mayfair/restaurant/greenhouse69393,200
658,2,Claude Bosi at Bibendum,51.49341,-0.16908929999999997,Chelsea,United Kingdom,United Kingdom,French,https://guide.michelin.com/gb/en/greater-london/chelsea/restaurant/claude-bosi-at-bibendum,200
659,3,Amador,48.254059999999996,16.35915,Wien,Austria,Austria,Creative,https://guide.michelin.com/at/en/vienna/wien/restaurant/amador,200
660,3,Manresa,37.22761,-121.98071000000002,South San Francisco,California,United States,Contemporary,https://guide.michelin.com/us/en/california/south-san-francisco/restaurant/manresa,200
661,3,Benu,37.78521,-122.39876000000001,San Francisco,California,United States,Asian,https://guide.michelin.com/us/en/california/san-francisco/restaurant/benu,200
662,3,Quince,37.79762,-122.40337,San Francisco,California,United States,Contemporary,https://guide.michelin.com/us/en/california/san-francisco/restaurant/quince,200
663,3,Atelier Crenn,37.79835,-122.43586,San Francisco,California,United States,Contemporary,https://guide.michelin.com/us/en/california/san-francisco/restaurant/atelier-crenn,200
664,3,The French Laundry,38.40443,-122.36474,San Francisco,California,United States,Contemporary,https://guide.michelin.com/us/en/california/san-francisco/restaurant/the-french-laundry,200
665,3,The Restaurant at Meadowood,38.52025,-122.46479,San Francisco,California,United States,Contemporary,https://guide.michelin.com/us/en/california/san-francisco/restaurant/the-restaurant-at-meadowood,200
666,3,SingleThread,38.612164,-122.86970500000001,San Francisco,California,United States,Contemporary,https://guide.michelin.com/us/en/california/san-francisco/restaurant/singlethread,200
667,3,Alinea,41.91328,-87.64798,Chicago,Chicago,United States,Contemporary,https://guide.michelin.com/us/en/illinois/chicago/restaurant/alinea,200
668,3,Geranium,55.70393000000001,12.57197,København,Denmark,Denmark,Creative,https://guide.michelin.com/dk/en/capital-region/kobenhavn/restaurant/geranium,200
669,3,T'ang Court,22.296572,114.1698,Hong Kong,Hong Kong,China,Cantonese,https://guide.michelin.com/hk/en/hong-kong-region/hong-kong/restaurant/t-ang-court,200
670,3,Bo Innovation,22.276139999999998,114.171,Hong Kong,Hong Kong,China,Innovative,https://guide.michelin.com/hk/en/hong-kong-region/hong-kong/restaurant/bo-innovation,200
671,3,Lung King Heen,22.28665,114.15673999999999,Hong Kong,Hong Kong,China,Cantonese,https://guide.michelin.com/hk/en/hong-kong-region/hong-kong/restaurant/lung-king-heen,200
672,3,Caprice,22.286645999999998,114.15661999999999,Hong Kong,Hong Kong,China,French,https://guide.michelin.com/hk/en/hong-kong-region/hong-kong/restaurant/caprice,200
673,3,8½ Otto e Mezzo - Bombana,22.28189,114.15839,Hong Kong,Hong Kong,China,Italian,https://guide.michelin.com/hk/en/hong-kong-region/hong-kong/restaurant/8%C2%BD-otto-e-mezzo-bombana,200
674,3,L'Atelier de Joël Robuchon,22.281198999999997,114.15816000000001,Hong Kong,Hong Kong,China,French contemporary,https://guide.michelin.com/hk/en/hong-kong-region/hong-kong/restaurant/l-atelier-de-joel-robuchon,200
675,3,Sushi Shikon,22.28511,114.15208,Hong Kong,Hong Kong,China,Sushi,https://guide.michelin.com/hk/en/hong-kong-region/hong-kong/restaurant/sushi-shikon,200
676,3,The Eight,22.190475,113.54341000000001,Macau,Macau,China,Chinese,https://guide.michelin.com/mo/en/macau-region/macau/restaurant/the-eight,200
677,3,Robuchon au Dôme,22.189949,113.54395,Macau,Macau,China,French contemporary,https://guide.michelin.com/mo/en/macau-region/macau/restaurant/robuchon-au-dome,200
678,3,Jade Dragon,22.149137,113.56715,Macau,Macau,China,Cantonese,https://guide.michelin.com/mo/en/macau-region/macau/restaurant/jade-dragon,200
679,3,Maaemo,59.910477,10.760408,Oslo,Norway,Norway,Modern cuisine,https://guide.michelin.com/no/en/oslo-region/oslo/restaurant/maaemo,200
680,3,Masa,40.76855,-73.98335,New York,New York City,United States,Japanese,https://guide.michelin.com/us/en/new-york-state/new-york/restaurant/masa,200
681,3,Per Se,40.76828,-73.98292,New York,New York City,United States,Contemporary,https://guide.michelin.com/us/en/new-york-state/new-york/restaurant/per-se,200
682,3,Le Bernardin,40.76177,-73.98223,New York,New York City,United States,Seafood,https://guide.michelin.com/us/en/new-york-state/new-york/restaurant/le-bernardin,200
683,3,Eleven Madison Park,40.7417,-73.98711999999999,New York,New York City,United States,Contemporary,https://guide.michelin.com/us/en/new-york-state/new-york/restaurant/eleven-madison-park,200
684,3,Chef's Table at Brooklyn Fare,40.68872,-73.98581,New York,New York City,United States,Contemporary,https://guide.michelin.com/us/en/new-york-state/new-york/restaurant/chef-s-table-at-brooklyn-fare,200
685,3,La Yeon,37.555813,127.00516999999999,Seoul,South Korea,South Korea,Korean,https://guide.michelin.com/kr/en/seoul-capital-area/kr-seoul/restaurant/la-yeon,200
686,3,Gaon,37.52265,127.03595,Seoul,South Korea,South Korea,Korean,https://guide.michelin.com/kr/en/seoul-capital-area/kr-seoul/restaurant/gaon,200
687,3,Frantzén,59.33418,18.058120000000002,Stockholm,Sweden,Sweden,Modern cuisine,https://guide.michelin.com/se/en/stockholm-region/stockholm/restaurant/frantzen,200
688,3,Le Palais,25.049495999999998,121.51673999999998,Taipei,Taipei,Taiwan,Cantonese,https://guide.michelin.com/tw/en/taipei-region/taipei/restaurant/le-palais,200
689,3,The Inn at Little Washington,38.713623,-78.16208,"Washington, D.C.",Washington DC,United States,American,https://guide.michelin.com/us/en/washington/washington-dc/restaurant/the-inn-at-little-washington,200
690,3,Fat Duck,51.50828,-0.7023199999999999,Bray,United Kingdom,United Kingdom,Creative,https://guide.michelin.com/gb/en/buckinghamshire/bray/restaurant/fat-duck,200
691,3,Waterside Inn,51.50773,-0.70121,Bray,United Kingdom,United Kingdom,Classic French,https://guide.michelin.com/gb/en/buckinghamshire/bray/restaurant/waterside-inn,200
692,3,Alain Ducasse at The Dorchester,51.50712,-0.1525201,Mayfair,United Kingdom,United Kingdom,French,https://guide.michelin.com/gb/en/greater-london/mayfair/restaurant/alain-ducasse-at-the-dorchester,200
693,3,The Araki,51.511826,-0.140389,Mayfair,United Kingdom,United Kingdom,Japanese,https://guide.michelin.com/gb/en/greater-london/mayfair/restaurant/the-araki,200
694,3,Gordon Ramsay,51.485459999999996,-0.1620201,Chelsea,United Kingdom,United Kingdom,French,https://guide.michelin.com/gb/en/greater-london/chelsea/restaurant/gordon-ramsay,200
